%
(Fixed: Body1-base-025.nc -> Body1-base-025_fixed.ngc)
(Generated & Repaired by Antigravity G-Code Fixer)
G21
G90
M3
G00 X0.0 Y0.0
G01 Z-0.0100 F250
M3
G00 X0.0 Y0.0
G00 Z4.9900
G00 X4.2063 Y4.2062
G1 X55.7938 Z-1.0100 F300
G1 Y26.1610 F640
G1 X47.5792
G1 X47.5938 Y26.6673
G1 X47.5289 Y28.0198
G1 X47.3601 Y29.3632
G1 X47.0885 Y30.6899
G1 X46.7157 Y31.9916
G1 X46.2439 Y33.2607
G1 X45.6758 Y34.4899
G1 X45.0150 Y35.6718
G1 X44.2651 Y36.7993
G1 X43.4309 Y37.8659
G1 X42.5171 Y38.8650
G1 X41.5290 Y39.7911
G1 X40.7937 Y40.3809
G1 X40.7938 Y69.0260
G1 X40.7373 Y69.8870
G1 X40.5639 Y70.7588
G1 X40.2782 Y71.6005
G1 X39.8850 Y72.3977
G1 X39.3912 Y73.1368
G1 X38.8051 Y73.8051
G1 X38.1368 Y74.3912
G1 X37.3977 Y74.8850
G1 X36.6005 Y75.2782
G1 X35.7588 Y75.5639
G1 X34.8870 Y75.7373
G1 X34.0260 Y75.7938
G1 X10.9740
G1 X10.1130 Y75.7373
G1 X9.2412 Y75.5639
G1 X8.3995 Y75.2782
G1 X7.6023 Y74.8850
G1 X6.8632 Y74.3912
G1 X6.1949 Y73.8051
G1 X5.6088 Y73.1368
G1 X5.1150 Y72.3977
G1 X4.7218 Y71.6005
G1 X4.4361 Y70.7588
G1 X4.2627 Y69.8870
G1 X4.2063 Y69.0260
G1 Y4.2062
G1 X55.7938
G00 Z4.9900
G00 X51.2915 Y8.8913
G1 Z0.0900 F300
G1 X51.0419 Y8.6540 Z0.0293
G1 X50.7496 Y8.4718 Z-0.0315
G1 X50.4266 Y8.3522 Z-0.0922
G1 X50.0862 Y8.3000 Z-0.1529
G1 X49.7422 Y8.3175 Z-0.2136
G1 X49.4088 Y8.4038 Z-0.2744
G1 X49.0996 Y8.5555 Z-0.3351
G1 X48.8273 Y8.7663 Z-0.3958
G1 X48.6029 Y9.0276 Z-0.4566
G1 X48.4358 Y9.3288 Z-0.5173
G1 X48.3327 Y9.6573 Z-0.5780
G1 X48.2978 Y10.0 Z-0.6387
G1 X48.3327 Y10.3427 Z-0.6995
G1 X48.4358 Y10.6713 Z-0.7602
G1 X48.6029 Y10.9724 Z-0.8209
G1 X48.8273 Y11.2337 Z-0.8817
G1 X49.0996 Y11.4445 Z-0.9424
G1 X49.4088 Y11.5962 Z-1.0031
G1 X49.7423 Y11.6825 Z-1.0100
G1 X50.0862 Y11.7000 F640
G1 X50.4267 Y11.6478
G1 X50.7496 Y11.5282
G1 X51.0419 Y11.3460
G1 X51.2915 Y11.1088
G1 X51.4883 Y10.8261
G1 X51.6241 Y10.5096
G1 X51.6934 Y10.1722
G1 Y9.8278
G1 X51.6241 Y9.4904
G1 X51.4883 Y9.1740
G1 X51.2915 Y8.8913
G1 X51.0419 Y8.6540
G1 X50.7496 Y8.4718
G1 X50.4266 Y8.3522
G1 X50.0862 Y8.3000
G1 X49.7422 Y8.3175
G1 X49.4088 Y8.4038
G1 X49.0996 Y8.5555
G1 X48.8273 Y8.7663
G1 X48.6029 Y9.0276
G1 X48.4358 Y9.3288
G1 X48.3327 Y9.6573
G1 X48.2978 Y10.0
G1 X48.3327 Y10.3427
G1 X48.4358 Y10.6713
G1 X48.6029 Y10.9724
G1 X48.8273 Y11.2337
G1 X49.0996 Y11.4445
G1 X49.4088 Y11.5962
G1 X49.7423 Y11.6825
G00 Z4.9900
G00 X50.0862 Y18.3000
G1 Z0.0900 F300
G1 X49.7423 Y18.3175 Z0.0293
G1 X49.4088 Y18.4038 Z-0.0315
G1 X49.0996 Y18.5555 Z-0.0922
G1 X48.8273 Y18.7663 Z-0.1529
G1 X48.6029 Y19.0276 Z-0.2136
G1 X48.4358 Y19.3288 Z-0.2744
G1 X48.3327 Y19.6573 Z-0.3351
G1 X48.2978 Y20.0001 Z-0.3958
G1 X48.3326 Y20.3425 Z-0.4565
G1 X48.4358 Y20.6713 Z-0.5173
G1 X48.6029 Y20.9724 Z-0.5780
G1 X48.8273 Y21.2338 Z-0.6388
G1 X49.0996 Y21.4445 Z-0.6995
G1 X49.4088 Y21.5962 Z-0.7602
G1 X49.7423 Y21.6825 Z-0.8209
G1 X50.0862 Y21.7000 Z-0.8817
G1 X50.4266 Y21.6478 Z-0.9424
G1 X50.7496 Y21.5283 Z-1.0031
G1 X51.0419 Y21.3460 Z-1.0100
G1 X51.2915 Y21.1088 F640
G1 X51.4883 Y20.8261
G1 X51.6241 Y20.5096
G1 X51.6934 Y20.1722
G1 Y19.8278
G1 X51.6241 Y19.4904
G1 X51.4883 Y19.1740
G1 X51.2915 Y18.8913
G1 X51.0419 Y18.6540
G1 X50.7496 Y18.4718
G1 X50.4266 Y18.3522
G1 X50.0862 Y18.3000
G1 X49.7423 Y18.3175
G1 X49.4088 Y18.4038
G1 X49.0996 Y18.5555
G1 X48.8273 Y18.7663
G1 X48.6029 Y19.0276
G1 X48.4358 Y19.3288
G1 X48.3327 Y19.6573
G1 X48.2978 Y20.0001
G1 X48.3326 Y20.3425
G1 X48.4358 Y20.6713
G1 X48.6029 Y20.9724
G1 X48.8273 Y21.2338
G1 X49.0996 Y21.4445
G1 X49.4088 Y21.5962
G1 X49.7423 Y21.6825
G1 X50.0862 Y21.7000
G1 X50.4266 Y21.6478
G1 X50.7496 Y21.5283
G1 X51.0419 Y21.3460
G00 Z4.9900
G00 X40.3943 Y23.9381
G1 Z0.0900 F300
G1 X40.0985 Y22.9469 Z-0.0924
G1 X39.7083 Y21.9887 Z-0.2748
G1 X39.2277 Y21.0729 Z-0.4572
G1 X38.6608 Y20.2076 Z-0.6396
G1 X38.0131 Y19.4011 Z-0.8220
G1 X37.2904 Y18.6608 Z-1.0044
G1 X36.4998 Y17.9938 Z-1.0100
G1 X35.6486 Y17.4062 F640
G1 X34.7445 Y16.9035
G1 X33.7961 Y16.4904
G1 X32.8123 Y16.1707
G1 X31.8023 Y15.9475
G1 X30.7755 Y15.8228
G1 X29.7413 Y15.7978
G1 X28.7096 Y15.8727
G1 X27.6900 Y16.0469
G1 X26.6918 Y16.3187
G1 X25.7246 Y16.6855
G1 X24.7975 Y17.1439
G1 X23.9187 Y17.6897
G1 X23.0968 Y18.3178
G1 X22.3393 Y19.0222
G1 X21.6534 Y19.7964
G1 X21.0453 Y20.6334
G1 X20.5209 Y21.5250
G1 X20.0850 Y22.4631
G1 X19.7417 Y23.4389
G1 X19.4941 Y24.4432
G1 X19.3447 Y25.4668
G1 X19.2947 Y26.5000
G1 X19.3447 Y27.5332
G1 X19.4941 Y28.5569
G1 X19.7417 Y29.5611
G1 X20.0850 Y30.5370
G1 X20.5209 Y31.4750
G1 X21.0454 Y32.3667
G1 X21.6533 Y33.2035
G1 X22.3394 Y33.9778
G1 X23.0968 Y34.6823
G1 X23.9187 Y35.3103
G1 X24.7974 Y35.8561
G1 X25.7246 Y36.3145
G1 X26.6919 Y36.6814
G1 X27.6900 Y36.9531
G1 X28.7097 Y37.1273
G1 X29.7412 Y37.2022
G1 X30.7755 Y37.1772
G1 X31.8023 Y37.0525
G1 X32.8123 Y36.8293
G1 X33.7962 Y36.5097
G1 X34.7445 Y36.0965
G1 X35.6486 Y35.5938
G1 X36.4999 Y35.0062
G1 X37.2904 Y34.3393
G1 X38.0131 Y33.5989
G1 X38.6608 Y32.7924
G1 X39.2276 Y31.9272
G1 X39.7083 Y31.0113
G1 X40.0985 Y30.0532
G1 X40.3943 Y29.0620
G1 X40.5930 Y28.0468
G1 X40.6928 Y27.0173
G1 Y25.9827
G1 X40.5930 Y24.9532
G1 X40.3943 Y23.9381
G1 X40.0985 Y22.9469
G1 X39.7083 Y21.9887
G1 X39.2277 Y21.0729
G1 X38.6608 Y20.2076
G1 X38.0131 Y19.4011
G1 X37.2904 Y18.6608
G1 X36.4998 Y17.9938
G00 Z4.9900
G00 X30.8479 Y40.6805
G1 Z0.0900 F300
G1 X30.3005 Y40.5980 Z-0.0076
G1 X29.7469 Z-0.1052
G1 X29.1995 Y40.6805 Z-0.2028
G1 X28.6705 Y40.8436 Z-0.3004
G1 X28.1717 Y41.0839 Z-0.3981
G1 X27.7143 Y41.3957 Z-0.4957
G1 X27.3085 Y41.7722 Z-0.5933
G1 X26.9633 Y42.2051 Z-0.6909
G1 X26.6865 Y42.6845 Z-0.7885
G1 X26.4843 Y43.1998 Z-0.8861
G1 X26.3610 Y43.7396 Z-0.9838
G1 X26.3175 Y44.3213 Z-1.0100
G1 Y68.7989 F640
G1 X26.3610 Y69.3806
G1 X26.4843 Y69.9204
G1 X26.6865 Y70.4356
G1 X26.9633 Y70.9151
G1 X27.3085 Y71.3479
G1 X27.7143 Y71.7245
G1 X28.1716 Y72.0363
G1 X28.6705 Y72.2765
G1 X29.1995 Y72.4397
G1 X29.7469 Y72.5222
G1 X30.3005
G1 X30.8479 Y72.4397
G1 X31.3769 Y72.2765
G1 X31.8757 Y72.0363
G1 X32.3331 Y71.7245
G1 X32.7389 Y71.3479
G1 X33.0841 Y70.9151
G1 X33.3609 Y70.4357
G1 X33.5632 Y69.9203
G1 X33.6864 Y69.3806
G1 X33.7300 Y68.7989
G1 Y44.3213
G1 X33.6864 Y43.7396
G1 X33.5632 Y43.1998
G1 X33.3609 Y42.6845
G1 X33.0841 Y42.2051
G1 X32.7389 Y41.7722
G1 X32.3331 Y41.3957
G1 X31.8757 Y41.0839
G1 X31.3769 Y40.8436
G1 X30.8479 Y40.6805
G1 X30.3005 Y40.5980
G1 X29.7469
G1 X29.1995 Y40.6805
G1 X28.6705 Y40.8436
G1 X28.1717 Y41.0839
G1 X27.7143 Y41.3957
G1 X27.3085 Y41.7722
G1 X26.9633 Y42.2051
G1 X26.6865 Y42.6845
G1 X26.4843 Y43.1998
G1 X26.3610 Y43.7396
G1 X26.3175 Y44.3213
G00 Z4.9900
G00 X10.6357 Y66.9939
G1 Z0.0900 F300
G1 X10.4670 Y66.9240 Z0.0578
G1 X10.2860 Y66.9002 Z0.0256
G1 X10.1050 Y66.9240 Z-0.0066
G1 X9.9363 Y66.9939 Z-0.0388
G1 X9.7915 Y67.1050 Z-0.0710
G1 X9.6803 Y67.2499 Z-0.1032
G1 X9.6104 Y67.4186 Z-0.1354
G1 X9.5866 Y67.5996 Z-0.1676
G1 X9.6104 Y67.7806 Z-0.1997
G1 X9.6803 Y67.9493 Z-0.2319
G1 X9.7914 Y68.0941 Z-0.2641
G1 X9.9363 Y68.2053 Z-0.2963
G1 X10.1050 Y68.2752 Z-0.3285
G1 X10.2860 Y68.2990 Z-0.3607
G1 X10.4670 Y68.2752 Z-0.3929
G1 X10.6357 Y68.2053 Z-0.4251
G1 X10.7806 Y68.0941 Z-0.4573
G1 X10.8917 Y67.9493 Z-0.4895
G1 X10.9616 Y67.7806 Z-0.5217
G1 X10.9854 Y67.5996 Z-0.5539
G1 X10.9616 Y67.4186 Z-0.5861
G1 X10.8917 Y67.2499 Z-0.6183
G1 X10.7806 Y67.1051 Z-0.6505
G1 X10.6357 Y66.9939 Z-0.6827
G1 X10.4670 Y66.9240 Z-0.7149
G1 X10.2860 Y66.9002 Z-0.7470
G1 X10.1050 Y66.9240 Z-0.7792
G1 X9.9363 Y66.9939 Z-0.8114
G1 X9.7915 Y67.1050 Z-0.8436
G1 X9.6803 Y67.2499 Z-0.8758
G1 X9.6104 Y67.4186 Z-0.9080
G1 X9.5866 Y67.5996 Z-0.9402
G1 X9.6104 Y67.7806 Z-0.9724
G1 X9.6803 Y67.9493 Z-1.0046
G1 X9.7914 Y68.0941 Z-1.0100
G1 X9.9363 Y68.2053 F640
G1 X10.1050 Y68.2752
G1 X10.2860 Y68.2990
G1 X10.4670 Y68.2752
G1 X10.6357 Y68.2053
G1 X10.7806 Y68.0941
G1 X10.8917 Y67.9493
G1 X10.9616 Y67.7806
G1 X10.9854 Y67.5996
G1 X10.9616 Y67.4186
G1 X10.8917 Y67.2499
G1 X10.7806 Y67.1051
G1 X10.6357 Y66.9939
G1 X10.4670 Y66.9240
G1 X10.2860 Y66.9002
G1 X10.1050 Y66.9240
G1 X9.9363 Y66.9939
G1 X9.7915 Y67.1050
G1 X9.6803 Y67.2499
G1 X9.6104 Y67.4186
G1 X9.5866 Y67.5996
G1 X9.6104 Y67.7806
G1 X9.6803 Y67.9493
G1 X9.7914 Y68.0941
G00 Z4.9900
G00 X10.0863 Y21.7000
G1 Z0.0900 F300
G1 X10.4266 Y21.6478 Z0.0293
G1 X10.7497 Y21.5282 Z-0.0315
G1 X11.0419 Y21.3460 Z-0.0922
G1 X11.2916 Y21.1088 Z-0.1529
G1 X11.4883 Y20.8261 Z-0.2136
G1 X11.6241 Y20.5096 Z-0.2744
G1 X11.6934 Y20.1722 Z-0.3351
G1 Y19.8279 Z-0.3958
G1 X11.6241 Y19.4904 Z-0.4566
G1 X11.4883 Y19.1740 Z-0.5173
G1 X11.2915 Y18.8913 Z-0.5780
G1 X11.0419 Y18.6540 Z-0.6387
G1 X10.7496 Y18.4718 Z-0.6995
G1 X10.4266 Y18.3522 Z-0.7602
G1 X10.0862 Y18.3000 Z-0.8209
G1 X9.7422 Y18.3175 Z-0.8817
G1 X9.4089 Y18.4038 Z-0.9424
G1 X9.0996 Y18.5555 Z-1.0031
G1 X8.8273 Y18.7663 Z-1.0100
G1 X8.6030 Y19.0276 F640
G1 X8.4358 Y19.3288
G1 X8.3327 Y19.6574
G1 X8.2979 Y20.0
G1 X8.3327 Y20.3427
G1 X8.4358 Y20.6712
G1 X8.6030 Y20.9724
G1 X8.8273 Y21.2337
G1 X9.0996 Y21.4445
G1 X9.4088 Y21.5962
G1 X9.7423 Y21.6825
G1 X10.0863 Y21.7000
G1 X10.4266 Y21.6478
G1 X10.7497 Y21.5282
G1 X11.0419 Y21.3460
G1 X11.2916 Y21.1088
G1 X11.4883 Y20.8261
G1 X11.6241 Y20.5096
G1 X11.6934 Y20.1722
G1 Y19.8279
G1 X11.6241 Y19.4904
G1 X11.4883 Y19.1740
G1 X11.2915 Y18.8913
G1 X11.0419 Y18.6540
G1 X10.7496 Y18.4718
G1 X10.4266 Y18.3522
G1 X10.0862 Y18.3000
G1 X9.7422 Y18.3175
G1 X9.4089 Y18.4038
G1 X9.0996 Y18.5555
G1 X8.8273 Y18.7663
G00 Z4.9900
G00 X9.7423 Y11.6825
G1 Z0.0900 F300
G1 X10.0862 Y11.7000 Z0.0293
G1 X10.4266 Y11.6478 Z-0.0314
G1 X10.7497 Y11.5282 Z-0.0922
G1 X11.0419 Y11.3461 Z-0.1529
G1 X11.2916 Y11.1087 Z-0.2136
G1 X11.4883 Y10.8261 Z-0.2744
G1 X11.6241 Y10.5096 Z-0.3351
G1 X11.6934 Y10.1722 Z-0.3958
G1 Y9.8279 Z-0.4565
G1 X11.6241 Y9.4904 Z-0.5173
G1 X11.4883 Y9.1740 Z-0.5780
G1 X11.2915 Y8.8913 Z-0.6387
G1 X11.0419 Y8.6540 Z-0.6995
G1 X10.7496 Y8.4718 Z-0.7602
G1 X10.4267 Y8.3522 Z-0.8209
G1 X10.0862 Y8.3000 Z-0.8817
G1 X9.7422 Y8.3175 Z-0.9424
G1 X9.4089 Y8.4038 Z-1.0031
G1 X9.0996 Y8.5555 Z-1.0100
G1 X8.8273 Y8.7663 F640
G1 X8.6030 Y9.0276
G1 X8.4358 Y9.3288
G1 X8.3327 Y9.6574
G1 X8.2979 Y10.0
G1 X8.3327 Y10.3427
G1 X8.4358 Y10.6713
G1 X8.6029 Y10.9724
G1 X8.8273 Y11.2337
G1 X9.0996 Y11.4445
G1 X9.4088 Y11.5962
G1 X9.7423 Y11.6825
G1 X10.0862 Y11.7000
G1 X10.4266 Y11.6478
G1 X10.7497 Y11.5282
G1 X11.0419 Y11.3461
G1 X11.2916 Y11.1087
G1 X11.4883 Y10.8261
G1 X11.6241 Y10.5096
G1 X11.6934 Y10.1722
G1 Y9.8279
G1 X11.6241 Y9.4904
G1 X11.4883 Y9.1740
G1 X11.2915 Y8.8913
G1 X11.0419 Y8.6540
G1 X10.7496 Y8.4718
G1 X10.4267 Y8.3522
G1 X10.0862 Y8.3000
G1 X9.7422 Y8.3175
G1 X9.4089 Y8.4038
G1 X9.0996 Y8.5555
G1 X8.8273 Y8.7663 Z-1.0707 F300
G1 X8.6030 Y9.0276 Z-1.1314
G1 X8.4358 Y9.3288 Z-1.1922
G1 X8.3327 Y9.6574 Z-1.2529
G1 X8.2979 Y10.0 Z-1.3136
G1 X8.3327 Y10.3427 Z-1.3744
G1 X8.4358 Y10.6713 Z-1.4351
G1 X8.6029 Y10.9724 Z-1.4958
G1 X8.8273 Y11.2337 Z-1.5566
G1 X9.0996 Y11.4445 Z-1.6173
G1 X9.4088 Y11.5962 Z-1.6780
G1 X9.7423 Y11.6825 Z-1.7387
G1 X10.0862 Y11.7000 Z-1.7995
G1 X10.4266 Y11.6478 Z-1.8602
G1 X10.7497 Y11.5282 Z-1.9209
G1 X11.0419 Y11.3461 Z-1.9817
G1 X11.2916 Y11.1087 Z-2.0100
G1 X11.4883 Y10.8261 F640
G1 X11.6241 Y10.5096
G1 X11.6934 Y10.1722
G1 Y9.8279
G1 X11.6241 Y9.4904
G1 X11.4883 Y9.1740
G1 X11.2915 Y8.8913
G1 X11.0419 Y8.6540
G1 X10.7496 Y8.4718
G1 X10.4267 Y8.3522
G1 X10.0862 Y8.3000
G1 X9.7422 Y8.3175
G1 X9.4089 Y8.4038
G1 X9.0996 Y8.5555
G1 X8.8273 Y8.7663
G1 X8.6030 Y9.0276
G1 X8.4358 Y9.3288
G1 X8.3327 Y9.6574
G1 X8.2979 Y10.0
G1 X8.3327 Y10.3427
G1 X8.4358 Y10.6713
G1 X8.6029 Y10.9724
G1 X8.8273 Y11.2337
G1 X9.0996 Y11.4445
G1 X9.4088 Y11.5962
G1 X9.7423 Y11.6825
G1 X10.0862 Y11.7000
G1 X10.4266 Y11.6478
G1 X10.7497 Y11.5282
G1 X11.0419 Y11.3461
G1 X11.2916 Y11.1087
G00 Z4.9900
G00 X10.0862 Y18.3000
G1 Z0.0900 F300
G1 X9.7422 Y18.3175 Z0.0293
G1 X9.4089 Y18.4038 Z-0.0315
G1 X9.0996 Y18.5555 Z-0.0922
G1 X8.8273 Y18.7663 Z-0.1529
G1 X8.6030 Y19.0276 Z-0.2136
G1 X8.4358 Y19.3288 Z-0.2744
G1 X8.3327 Y19.6574 Z-0.3351
G1 X8.2979 Y20.0 Z-0.3958
G1 X8.3327 Y20.3427 Z-0.4566
G1 X8.4358 Y20.6712 Z-0.5173
G1 X8.6030 Y20.9724 Z-0.5780
G1 X8.8273 Y21.2337 Z-0.6387
G1 X9.0996 Y21.4445 Z-0.6995
G1 X9.4088 Y21.5962 Z-0.7602
G1 X9.7423 Y21.6825 Z-0.8209
G1 X10.0863 Y21.7000 Z-0.8817
G1 X10.4266 Y21.6478 Z-0.9424
G1 X10.7497 Y21.5282 Z-1.0031
G1 X11.0419 Y21.3460 Z-1.0638
G1 X11.2916 Y21.1088 Z-1.1246
G1 X11.4883 Y20.8261 Z-1.1853
G1 X11.6241 Y20.5096 Z-1.2460
G1 X11.6934 Y20.1722 Z-1.3068
G1 Y19.8279 Z-1.3675
G1 X11.6241 Y19.4904 Z-1.4282
G1 X11.4883 Y19.1740 Z-1.4889
G1 X11.2915 Y18.8913 Z-1.5497
G1 X11.0419 Y18.6540 Z-1.6104
G1 X10.7496 Y18.4718 Z-1.6711
G1 X10.4266 Y18.3522 Z-1.7319
G1 X10.0862 Y18.3000 Z-1.7926
G1 X9.7422 Y18.3175 Z-1.8533
G1 X9.4089 Y18.4038 Z-1.9140
G1 X9.0996 Y18.5555 Z-1.9748
G1 X8.8273 Y18.7663 Z-2.0100
G1 X8.6030 Y19.0276 F640
G1 X8.4358 Y19.3288
G1 X8.3327 Y19.6574
G1 X8.2979 Y20.0
G1 X8.3327 Y20.3427
G1 X8.4358 Y20.6712
G1 X8.6030 Y20.9724
G1 X8.8273 Y21.2337
G1 X9.0996 Y21.4445
G1 X9.4088 Y21.5962
G1 X9.7423 Y21.6825
G1 X10.0863 Y21.7000
G1 X10.4266 Y21.6478
G1 X10.7497 Y21.5282
G1 X11.0419 Y21.3460
G1 X11.2916 Y21.1088
G1 X11.4883 Y20.8261
G1 X11.6241 Y20.5096
G1 X11.6934 Y20.1722
G1 Y19.8279
G1 X11.6241 Y19.4904
G1 X11.4883 Y19.1740
G1 X11.2915 Y18.8913
G1 X11.0419 Y18.6540
G1 X10.7496 Y18.4718
G1 X10.4266 Y18.3522
G1 X10.0862 Y18.3000
G1 X9.7422 Y18.3175
G1 X9.4089 Y18.4038
G1 X9.0996 Y18.5555
G1 X8.8273 Y18.7663
G00 Z4.9900
G00 X20.0850 Y22.4631
G1 Z0.0900 F300
G1 X19.7417 Y23.4389 Z-0.0924
G1 X19.4941 Y24.4432 Z-0.2748
G1 X19.3447 Y25.4668 Z-0.4572
G1 X19.2947 Y26.5000 Z-0.6396
G1 X19.3447 Y27.5332 Z-0.8220
G1 X19.4941 Y28.5569 Z-1.0044
G1 X19.7417 Y29.5611 Z-1.1868
G1 X20.0850 Y30.5370 Z-1.3692
G1 X20.5209 Y31.4750 Z-1.5516
G1 X21.0454 Y32.3667 Z-1.7340
G1 X21.6533 Y33.2035 Z-1.9163
G1 X22.3394 Y33.9778 Z-2.0100
G1 X23.0968 Y34.6823 F640
G1 X23.9187 Y35.3103
G1 X24.7974 Y35.8561
G1 X25.7246 Y36.3145
G1 X26.6919 Y36.6814
G1 X27.6900 Y36.9531
G1 X28.7097 Y37.1273
G1 X29.7412 Y37.2022
G1 X30.7755 Y37.1772
G1 X31.8023 Y37.0525
G1 X32.8123 Y36.8293
G1 X33.7962 Y36.5097
G1 X34.7445 Y36.0965
G1 X35.6486 Y35.5938
G1 X36.4999 Y35.0062
G1 X37.2904 Y34.3393
G1 X38.0131 Y33.5989
G1 X38.6608 Y32.7924
G1 X39.2276 Y31.9272
G1 X39.7083 Y31.0113
G1 X40.0985 Y30.0532
G1 X40.3943 Y29.0620
G1 X40.5930 Y28.0468
G1 X40.6928 Y27.0173
G1 Y25.9827
G1 X40.5930 Y24.9532
G1 X40.3943 Y23.9381
G1 X40.0985 Y22.9469
G1 X39.7083 Y21.9887
G1 X39.2277 Y21.0729
G1 X38.6608 Y20.2076
G1 X38.0131 Y19.4011
G1 X37.2904 Y18.6608
G1 X36.4998 Y17.9938
G1 X35.6486 Y17.4062
G1 X34.7445 Y16.9035
G1 X33.7961 Y16.4904
G1 X32.8123 Y16.1707
G1 X31.8023 Y15.9475
G1 X30.7755 Y15.8228
G1 X29.7413 Y15.7978
G1 X28.7096 Y15.8727
G1 X27.6900 Y16.0469
G1 X26.6918 Y16.3187
G1 X25.7246 Y16.6855
G1 X24.7975 Y17.1439
G1 X23.9187 Y17.6897
G1 X23.0968 Y18.3178
G1 X22.3393 Y19.0222
G1 X21.6534 Y19.7964
G1 X21.0453 Y20.6334
G1 X20.5209 Y21.5250
G1 X20.0850 Y22.4631
G1 X19.7417 Y23.4389
G1 X19.4941 Y24.4432
G1 X19.3447 Y25.4668
G1 X19.2947 Y26.5000
G1 X19.3447 Y27.5332
G1 X19.4941 Y28.5569
G1 X19.7417 Y29.5611
G1 X20.0850 Y30.5370
G1 X20.5209 Y31.4750
G1 X21.0454 Y32.3667
G1 X21.6533 Y33.2035
G1 X22.3394 Y33.9778
G00 Z4.9900
G00 X27.7143 Y41.3957
G1 Z0.0900 F300
G1 X27.3085 Y41.7722 Z-0.0076
G1 X26.9633 Y42.2051 Z-0.1052
G1 X26.6865 Y42.6845 Z-0.2028
G1 X26.4843 Y43.1998 Z-0.3004
G1 X26.3610 Y43.7396 Z-0.3981
G1 X26.3175 Y44.3213 Z-0.5009
G1 Y68.7989 Z-2.0100
G1 X26.3610 Y69.3806 F640
G1 X26.4843 Y69.9204
G1 X26.6865 Y70.4356
G1 X26.9633 Y70.9151
G1 X27.3085 Y71.3479
G1 X27.7143 Y71.7245
G1 X28.1716 Y72.0363
G1 X28.6705 Y72.2765
G1 X29.1995 Y72.4397
G1 X29.7469 Y72.5222
G1 X30.3005
G1 X30.8479 Y72.4397
G1 X31.3769 Y72.2765
G1 X31.8757 Y72.0363
G1 X32.3331 Y71.7245
G1 X32.7389 Y71.3479
G1 X33.0841 Y70.9151
G1 X33.3609 Y70.4357
G1 X33.5632 Y69.9203
G1 X33.6864 Y69.3806
G1 X33.7300 Y68.7989
G1 Y44.3213
G1 X33.6864 Y43.7396
G1 X33.5632 Y43.1998
G1 X33.3609 Y42.6845
G1 X33.0841 Y42.2051
G1 X32.7389 Y41.7722
G1 X32.3331 Y41.3957
G1 X31.8757 Y41.0839
G1 X31.3769 Y40.8436
G1 X30.8479 Y40.6805
G1 X30.3005 Y40.5980
G1 X29.7469
G1 X29.1995 Y40.6805
G1 X28.6705 Y40.8436
G1 X28.1717 Y41.0839
G1 X27.7143 Y41.3957
G1 X27.3085 Y41.7722
G1 X26.9633 Y42.2051
G1 X26.6865 Y42.6845
G1 X26.4843 Y43.1998
G1 X26.3610 Y43.7396
G1 X26.3175 Y44.3213
G1 Y68.7989
G00 Z4.9900
G00 X34.0260 Y75.7938
G1 Z0.0900 F300
G1 X10.9740 Z-2.0100
G1 X10.1130 Y75.7373 F640
G1 X9.2412 Y75.5639
G1 X8.3995 Y75.2782
G1 X7.6023 Y74.8850
G1 X6.8632 Y74.3912
G1 X6.1949 Y73.8051
G1 X5.6088 Y73.1368
G1 X5.1150 Y72.3977
G1 X4.7218 Y71.6005
G1 X4.4361 Y70.7588
G1 X4.2627 Y69.8870
G1 X4.2063 Y69.0260
G1 Y4.2062
G1 X55.7938
G1 Y26.1610
G1 X47.5792
G1 X47.5938 Y26.6673
G1 X47.5289 Y28.0198
G1 X47.3601 Y29.3632
G1 X47.0885 Y30.6899
G1 X46.7157 Y31.9916
G1 X46.2439 Y33.2607
G1 X45.6758 Y34.4899
G1 X45.0150 Y35.6718
G1 X44.2651 Y36.7993
G1 X43.4309 Y37.8659
G1 X42.5171 Y38.8650
G1 X41.5290 Y39.7911
G1 X40.7937 Y40.3809
G1 X40.7938 Y69.0260
G1 X40.7373 Y69.8870
G1 X40.5639 Y70.7588
G1 X40.2782 Y71.6005
G1 X39.8850 Y72.3977
G1 X39.3912 Y73.1368
G1 X38.8051 Y73.8051
G1 X38.1368 Y74.3912
G1 X37.3977 Y74.8850
G1 X36.6005 Y75.2782
G1 X35.7588 Y75.5639
G1 X34.8870 Y75.7373
G1 X34.0260 Y75.7938
G1 X10.9740
G00 Z4.9900
G00 X10.2860 Y68.2990
G1 Z0.0900 F300
G1 X10.4670 Y68.2752 Z0.0578
G1 X10.6357 Y68.2053 Z0.0256
G1 X10.7806 Y68.0941 Z-0.0066
G1 X10.8917 Y67.9493 Z-0.0388
G1 X10.9616 Y67.7806 Z-0.0710
G1 X10.9854 Y67.5996 Z-0.1032
G1 X10.9616 Y67.4186 Z-0.1353
G1 X10.8917 Y67.2499 Z-0.1676
G1 X10.7806 Y67.1051 Z-0.1997
G1 X10.6357 Y66.9939 Z-0.2319
G1 X10.4670 Y66.9240 Z-0.2641
G1 X10.2860 Y66.9002 Z-0.2963
G1 X10.1050 Y66.9240 Z-0.3285
G1 X9.9363 Y66.9939 Z-0.3607
G1 X9.7915 Y67.1050 Z-0.3929
G1 X9.6803 Y67.2499 Z-0.4251
G1 X9.6104 Y67.4186 Z-0.4573
G1 X9.5866 Y67.5996 Z-0.4895
G1 X9.6104 Y67.7806 Z-0.5217
G1 X9.6803 Y67.9493 Z-0.5539
G1 X9.7914 Y68.0941 Z-0.5861
G1 X9.9363 Y68.2053 Z-0.6183
G1 X10.1050 Y68.2752 Z-0.6505
G1 X10.2860 Y68.2990 Z-0.6827
G1 X10.4670 Y68.2752 Z-0.7148
G1 X10.6357 Y68.2053 Z-0.7470
G1 X10.7806 Y68.0941 Z-0.7792
G1 X10.8917 Y67.9493 Z-0.8114
G1 X10.9616 Y67.7806 Z-0.8436
G1 X10.9854 Y67.5996 Z-0.8758
G1 X10.9616 Y67.4186 Z-0.9080
G1 X10.8917 Y67.2499 Z-0.9402
G1 X10.7806 Y67.1051 Z-0.9724
G1 X10.6357 Y66.9939 Z-1.0046
G1 X10.4670 Y66.9240 Z-1.0368
G1 X10.2860 Y66.9002 Z-1.0690
G1 X10.1050 Y66.9240 Z-1.1012
G1 X9.9363 Y66.9939 Z-1.1334
G1 X9.7915 Y67.1050 Z-1.1656
G1 X9.6803 Y67.2499 Z-1.1977
G1 X9.6104 Y67.4186 Z-1.2300
G1 X9.5866 Y67.5996 Z-1.2621
G1 X9.6104 Y67.7806 Z-1.2943
G1 X9.6803 Y67.9493 Z-1.3265
G1 X9.7914 Y68.0941 Z-1.3587
G1 X9.9363 Y68.2053 Z-1.3909
G1 X10.1050 Y68.2752 Z-1.4231
G1 X10.2860 Y68.2990 Z-1.4553
G1 X10.4670 Y68.2752 Z-1.4875
G1 X10.6357 Y68.2053 Z-1.5197
G1 X10.7806 Y68.0941 Z-1.5519
G1 X10.8917 Y67.9493 Z-1.5841
G1 X10.9616 Y67.7806 Z-1.6163
G1 X10.9854 Y67.5996 Z-1.6485
G1 X10.9616 Y67.4186 Z-1.6807
G1 X10.8917 Y67.2499 Z-1.7129
G1 X10.7806 Y67.1051 Z-1.7450
G1 X10.6357 Y66.9939 Z-1.7772
G1 X10.4670 Y66.9240 Z-1.8094
G1 X10.2860 Y66.9002 Z-1.8416
G1 X10.1050 Y66.9240 Z-1.8738
G1 X9.9363 Y66.9939 Z-1.9060
G1 X9.7915 Y67.1050 Z-1.9382
G1 X9.6803 Y67.2499 Z-1.9704
G1 X9.6104 Y67.4186 Z-2.0026
G1 X9.5866 Y67.5996 Z-2.0100
G1 X9.6104 Y67.7806 F640
G1 X9.6803 Y67.9493
G1 X9.7914 Y68.0941
G1 X9.9363 Y68.2053
G1 X10.1050 Y68.2752
G1 X10.2860 Y68.2990
G1 X10.4670 Y68.2752
G1 X10.6357 Y68.2053
G1 X10.7806 Y68.0941
G1 X10.8917 Y67.9493
G1 X10.9616 Y67.7806
G1 X10.9854 Y67.5996
G1 X10.9616 Y67.4186
G1 X10.8917 Y67.2499
G1 X10.7806 Y67.1051
G1 X10.6357 Y66.9939
G1 X10.4670 Y66.9240
G1 X10.2860 Y66.9002
G1 X10.1050 Y66.9240
G1 X9.9363 Y66.9939
G1 X9.7915 Y67.1050
G1 X9.6803 Y67.2499
G1 X9.6104 Y67.4186
G1 X9.5866 Y67.5996
G00 Z4.9900
G00 X48.8273 Y21.2338
G1 Z0.0900 F300
G1 X49.0996 Y21.4445 Z0.0293
G1 X49.4088 Y21.5962 Z-0.0315
G1 X49.7423 Y21.6825 Z-0.0922
G1 X50.0862 Y21.7000 Z-0.1529
G1 X50.4266 Y21.6478 Z-0.2136
G1 X50.7496 Y21.5283 Z-0.2744
G1 X51.0419 Y21.3460 Z-0.3351
G1 X51.2915 Y21.1088 Z-0.3958
G1 X51.4883 Y20.8261 Z-0.4566
G1 X51.6241 Y20.5096 Z-0.5173
G1 X51.6934 Y20.1722 Z-0.5780
G1 Y19.8278 Z-0.6387
G1 X51.6241 Y19.4904 Z-0.6995
G1 X51.4883 Y19.1740 Z-0.7602
G1 X51.2915 Y18.8913 Z-0.8209
G1 X51.0419 Y18.6540 Z-0.8817
G1 X50.7496 Y18.4718 Z-0.9424
G1 X50.4266 Y18.3522 Z-1.0031
G1 X50.0862 Y18.3000 Z-1.0638
G1 X49.7423 Y18.3175 Z-1.1246
G1 X49.4088 Y18.4038 Z-1.1853
G1 X49.0996 Y18.5555 Z-1.2460
G1 X48.8273 Y18.7663 Z-1.3068
G1 X48.6029 Y19.0276 Z-1.3675
G1 X48.4358 Y19.3288 Z-1.4282
G1 X48.3327 Y19.6573 Z-1.4889
G1 X48.2978 Y20.0001 Z-1.5497
G1 X48.3326 Y20.3425 Z-1.6104
G1 X48.4358 Y20.6713 Z-1.6711
G1 X48.6029 Y20.9724 Z-1.7318
G1 X48.8273 Y21.2338 Z-1.7926
G1 X49.0996 Y21.4445 Z-1.8533
G1 X49.4088 Y21.5962 Z-1.9140
G1 X49.7423 Y21.6825 Z-1.9748
G1 X50.0862 Y21.7000 Z-2.0100
G1 X50.4266 Y21.6478 F640
G1 X50.7496 Y21.5283
G1 X51.0419 Y21.3460
G1 X51.2915 Y21.1088
G1 X51.4883 Y20.8261
G1 X51.6241 Y20.5096
G1 X51.6934 Y20.1722
G1 Y19.8278
G1 X51.6241 Y19.4904
G1 X51.4883 Y19.1740
G1 X51.2915 Y18.8913
G1 X51.0419 Y18.6540
G1 X50.7496 Y18.4718
G1 X50.4266 Y18.3522
G1 X50.0862 Y18.3000
G1 X49.7423 Y18.3175
G1 X49.4088 Y18.4038
G1 X49.0996 Y18.5555
G1 X48.8273 Y18.7663
G1 X48.6029 Y19.0276
G1 X48.4358 Y19.3288
G1 X48.3327 Y19.6573
G1 X48.2978 Y20.0001
G1 X48.3326 Y20.3425
G1 X48.4358 Y20.6713
G1 X48.6029 Y20.9724
G1 X48.8273 Y21.2338
G1 X49.0996 Y21.4445
G1 X49.4088 Y21.5962
G1 X49.7423 Y21.6825
G1 X50.0862 Y21.7000
G00 Z4.9900
G00 Y11.7000
G1 Z0.0900 F300
G1 X50.4267 Y11.6478 Z0.0293
G1 X50.7496 Y11.5282 Z-0.0315
G1 X51.0419 Y11.3460 Z-0.0922
G1 X51.2915 Y11.1088 Z-0.1529
G1 X51.4883 Y10.8261 Z-0.2136
G1 X51.6241 Y10.5096 Z-0.2744
G1 X51.6934 Y10.1722 Z-0.3351
G1 Y9.8278 Z-0.3958
G1 X51.6241 Y9.4904 Z-0.4566
G1 X51.4883 Y9.1740 Z-0.5173
G1 X51.2915 Y8.8913 Z-0.5780
G1 X51.0419 Y8.6540 Z-0.6387
G1 X50.7496 Y8.4718 Z-0.6995
G1 X50.4266 Y8.3522 Z-0.7602
G1 X50.0862 Y8.3000 Z-0.8209
G1 X49.7422 Y8.3175 Z-0.8817
G1 X49.4088 Y8.4038 Z-0.9424
G1 X49.0996 Y8.5555 Z-1.0031
G1 X48.8273 Y8.7663 Z-1.0638
G1 X48.6029 Y9.0276 Z-1.1246
G1 X48.4358 Y9.3288 Z-1.1853
G1 X48.3327 Y9.6573 Z-1.2460
G1 X48.2978 Y10.0 Z-1.3068
G1 X48.3327 Y10.3427 Z-1.3675
G1 X48.4358 Y10.6713 Z-1.4282
G1 X48.6029 Y10.9724 Z-1.4889
G1 X48.8273 Y11.2337 Z-1.5497
G1 X49.0996 Y11.4445 Z-1.6104
G1 X49.4088 Y11.5962 Z-1.6711
G1 X49.7423 Y11.6825 Z-1.7319
G1 X50.0862 Y11.7000 Z-1.7926
G1 X50.4267 Y11.6478 Z-1.8533
G1 X50.7496 Y11.5282 Z-1.9140
G1 X51.0419 Y11.3460 Z-1.9748
G1 X51.2915 Y11.1088 Z-2.0100
G1 X51.4883 Y10.8261 F640
G1 X51.6241 Y10.5096
G1 X51.6934 Y10.1722
G1 Y9.8278
G1 X51.6241 Y9.4904
G1 X51.4883 Y9.1740
G1 X51.2915 Y8.8913
G1 X51.0419 Y8.6540
G1 X50.7496 Y8.4718
G1 X50.4266 Y8.3522
G1 X50.0862 Y8.3000
G1 X49.7422 Y8.3175
G1 X49.4088 Y8.4038
G1 X49.0996 Y8.5555
G1 X48.8273 Y8.7663
G1 X48.6029 Y9.0276
G1 X48.4358 Y9.3288
G1 X48.3327 Y9.6573
G1 X48.2978 Y10.0
G1 X48.3327 Y10.3427
G1 X48.4358 Y10.6713
G1 X48.6029 Y10.9724
G1 X48.8273 Y11.2337
G1 X49.0996 Y11.4445
G1 X49.4088 Y11.5962
G1 X49.7423 Y11.6825
G1 X50.0862 Y11.7000
G1 X50.4267 Y11.6478
G1 X50.7496 Y11.5282
G1 X51.0419 Y11.3460
G1 X51.2915 Y11.1088
G1 X51.4883 Y10.8261 Z-2.0707 F300
G1 X51.6241 Y10.5096 Z-2.1315
G1 X51.6934 Y10.1722 Z-2.1922
G1 Y9.8278 Z-2.2529
G1 X51.6241 Y9.4904 Z-2.3136
G1 X51.4883 Y9.1740 Z-2.3744
G1 X51.2915 Y8.8913 Z-2.4351
G1 X51.0419 Y8.6540 Z-2.4958
G1 X50.7496 Y8.4718 Z-2.5566
G1 X50.4266 Y8.3522 Z-2.6173
G1 X50.0862 Y8.3000 Z-2.6780
G1 X49.7422 Y8.3175 Z-2.7387
G1 X49.4088 Y8.4038 Z-2.7995
G1 X49.0996 Y8.5555 Z-2.8602
G1 X48.8273 Y8.7663 Z-2.9209
G1 X48.6029 Y9.0276 Z-2.9817
G1 X48.4358 Y9.3288 Z-3.0100
G1 X48.3327 Y9.6573 F640
G1 X48.2978 Y10.0
G1 X48.3327 Y10.3427
G1 X48.4358 Y10.6713
G1 X48.6029 Y10.9724
G1 X48.8273 Y11.2337
G1 X49.0996 Y11.4445
G1 X49.4088 Y11.5962
G1 X49.7423 Y11.6825
G1 X50.0862 Y11.7000
G1 X50.4267 Y11.6478
G1 X50.7496 Y11.5282
G1 X51.0419 Y11.3460
G1 X51.2915 Y11.1088
G1 X51.4883 Y10.8261
G1 X51.6241 Y10.5096
G1 X51.6934 Y10.1722
G1 Y9.8278
G1 X51.6241 Y9.4904
G1 X51.4883 Y9.1740
G1 X51.2915 Y8.8913
G1 X51.0419 Y8.6540
G1 X50.7496 Y8.4718
G1 X50.4266 Y8.3522
G1 X50.0862 Y8.3000
G1 X49.7422 Y8.3175
G1 X49.4088 Y8.4038
G1 X49.0996 Y8.5555
G1 X48.8273 Y8.7663
G1 X48.6029 Y9.0276
G1 X48.4358 Y9.3288
G00 Z4.9900
G00 X55.7938 Y4.2062
G1 Z0.0900 F300
G1 Y26.1610 Z-3.0100
G1 X47.5792 F640
G1 X47.5938 Y26.6673
G1 X47.5289 Y28.0198
G1 X47.3601 Y29.3632
G1 X47.0885 Y30.6899
G1 X46.7157 Y31.9916
G1 X46.2439 Y33.2607
G1 X45.6758 Y34.4899
G1 X45.0150 Y35.6718
G1 X44.2651 Y36.7993
G1 X43.4309 Y37.8659
G1 X42.5171 Y38.8650
G1 X41.5290 Y39.7911
G1 X40.7937 Y40.3809
G1 X40.7938 Y69.0260
G1 X40.7373 Y69.8870
G1 X40.5639 Y70.7588
G1 X40.2782 Y71.6005
G1 X39.8850 Y72.3977
G1 X39.3912 Y73.1368
G1 X38.8051 Y73.8051
G1 X38.1368 Y74.3912
G1 X37.3977 Y74.8850
G1 X36.6005 Y75.2782
G1 X35.7588 Y75.5639
G1 X34.8870 Y75.7373
G1 X34.0260 Y75.7938
G1 X10.9740
G1 X10.1130 Y75.7373
G1 X9.2412 Y75.5639
G1 X8.3995 Y75.2782
G1 X7.6023 Y74.8850
G1 X6.8632 Y74.3912
G1 X6.1949 Y73.8051
G1 X5.6088 Y73.1368
G1 X5.1150 Y72.3977
G1 X4.7218 Y71.6005
G1 X4.4361 Y70.7588
G1 X4.2627 Y69.8870
G1 X4.2063 Y69.0260
G1 Y4.2062
G1 X55.7938
G1 Y26.1610
G00 Z4.9900
G00 X51.0419 Y21.3460
G1 Z0.0900 F300
G1 X51.2915 Y21.1088 Z0.0293
G1 X51.4883 Y20.8261 Z-0.0315
G1 X51.6241 Y20.5096 Z-0.0922
G1 X51.6934 Y20.1722 Z-0.1529
G1 Y19.8278 Z-0.2136
G1 X51.6241 Y19.4904 Z-0.2744
G1 X51.4883 Y19.1740 Z-0.3351
G1 X51.2915 Y18.8913 Z-0.3958
G1 X51.0419 Y18.6540 Z-0.4566
G1 X50.7496 Y18.4718 Z-0.5173
G1 X50.4266 Y18.3522 Z-0.5780
G1 X50.0862 Y18.3000 Z-0.6387
G1 X49.7423 Y18.3175 Z-0.6995
G1 X49.4088 Y18.4038 Z-0.7602
G1 X49.0996 Y18.5555 Z-0.8209
G1 X48.8273 Y18.7663 Z-0.8817
G1 X48.6029 Y19.0276 Z-0.9424
G1 X48.4358 Y19.3288 Z-1.0031
G1 X48.3327 Y19.6573 Z-1.0638
G1 X48.2978 Y20.0001 Z-1.1246
G1 X48.3326 Y20.3425 Z-1.1853
G1 X48.4358 Y20.6713 Z-1.2460
G1 X48.6029 Y20.9724 Z-1.3067
G1 X48.8273 Y21.2338 Z-1.3675
G1 X49.0996 Y21.4445 Z-1.4282
G1 X49.4088 Y21.5962 Z-1.4889
G1 X49.7423 Y21.6825 Z-1.5497
G1 X50.0862 Y21.7000 Z-1.6104
G1 X50.4266 Y21.6478 Z-1.6711
G1 X50.7496 Y21.5283 Z-1.7318
G1 X51.0419 Y21.3460 Z-1.7926
G1 X51.2915 Y21.1088 Z-1.8533
G1 X51.4883 Y20.8261 Z-1.9140
G1 X51.6241 Y20.5096 Z-1.9748
G1 X51.6934 Y20.1722 Z-2.0355
G1 Y19.8278 Z-2.0962
G1 X51.6241 Y19.4904 Z-2.1570
G1 X51.4883 Y19.1740 Z-2.2177
G1 X51.2915 Y18.8913 Z-2.2784
G1 X51.0419 Y18.6540 Z-2.3391
G1 X50.7496 Y18.4718 Z-2.3999
G1 X50.4266 Y18.3522 Z-2.4606
G1 X50.0862 Y18.3000 Z-2.5213
G1 X49.7423 Y18.3175 Z-2.5821
G1 X49.4088 Y18.4038 Z-2.6428
G1 X49.0996 Y18.5555 Z-2.7035
G1 X48.8273 Y18.7663 Z-2.7642
G1 X48.6029 Y19.0276 Z-2.8250
G1 X48.4358 Y19.3288 Z-2.8857
G1 X48.3327 Y19.6573 Z-2.9464
G1 X48.2978 Y20.0001 Z-3.0072
G1 X48.3326 Y20.3425 Z-3.0100
G1 X48.4358 Y20.6713 F640
G1 X48.6029 Y20.9724
G1 X48.8273 Y21.2338
G1 X49.0996 Y21.4445
G1 X49.4088 Y21.5962
G1 X49.7423 Y21.6825
G1 X50.0862 Y21.7000
G1 X50.4266 Y21.6478
G1 X50.7496 Y21.5283
G1 X51.0419 Y21.3460
G1 X51.2915 Y21.1088
G1 X51.4883 Y20.8261
G1 X51.6241 Y20.5096
G1 X51.6934 Y20.1722
G1 Y19.8278
G1 X51.6241 Y19.4904
G1 X51.4883 Y19.1740
G1 X51.2915 Y18.8913
G1 X51.0419 Y18.6540
G1 X50.7496 Y18.4718
G1 X50.4266 Y18.3522
G1 X50.0862 Y18.3000
G1 X49.7423 Y18.3175
G1 X49.4088 Y18.4038
G1 X49.0996 Y18.5555
G1 X48.8273 Y18.7663
G1 X48.6029 Y19.0276
G1 X48.4358 Y19.3288
G1 X48.3327 Y19.6573
G1 X48.2978 Y20.0001
G1 X48.3326 Y20.3425
G00 Z4.9900
G00 X40.0985 Y22.9469
G1 Z0.0900 F300
G1 X39.7083 Y21.9887 Z-0.0924
G1 X39.2277 Y21.0729 Z-0.2748
G1 X38.6608 Y20.2076 Z-0.4572
G1 X38.0131 Y19.4011 Z-0.6396
G1 X37.2904 Y18.6608 Z-0.8220
G1 X36.4998 Y17.9938 Z-1.0044
G1 X35.6486 Y17.4062 Z-1.1868
G1 X34.7445 Y16.9035 Z-1.3692
G1 X33.7961 Y16.4904 Z-1.5516
G1 X32.8123 Y16.1707 Z-1.7340
G1 X31.8023 Y15.9475 Z-1.9164
G1 X30.7755 Y15.8228 Z-2.0988
G1 X29.7413 Y15.7978 Z-2.2812
G1 X28.7096 Y15.8727 Z-2.4635
G1 X27.6900 Y16.0469 Z-2.6459
G1 X26.6918 Y16.3187 Z-2.8284
G1 X25.7246 Y16.6855 Z-3.0100
G1 X24.7975 Y17.1439 F640
G1 X23.9187 Y17.6897
G1 X23.0968 Y18.3178
G1 X22.3393 Y19.0222
G1 X21.6534 Y19.7964
G1 X21.0453 Y20.6334
G1 X20.5209 Y21.5250
G1 X20.0850 Y22.4631
G1 X19.7417 Y23.4389
G1 X19.4941 Y24.4432
G1 X19.3447 Y25.4668
G1 X19.2947 Y26.5000
G1 X19.3447 Y27.5332
G1 X19.4941 Y28.5569
G1 X19.7417 Y29.5611
G1 X20.0850 Y30.5370
G1 X20.5209 Y31.4750
G1 X21.0454 Y32.3667
G1 X21.6533 Y33.2035
G1 X22.3394 Y33.9778
G1 X23.0968 Y34.6823
G1 X23.9187 Y35.3103
G1 X24.7974 Y35.8561
G1 X25.7246 Y36.3145
G1 X26.6919 Y36.6814
G1 X27.6900 Y36.9531
G1 X28.7097 Y37.1273
G1 X29.7412 Y37.2022
G1 X30.7755 Y37.1772
G1 X31.8023 Y37.0525
G1 X32.8123 Y36.8293
G1 X33.7962 Y36.5097
G1 X34.7445 Y36.0965
G1 X35.6486 Y35.5938
G1 X36.4999 Y35.0062
G1 X37.2904 Y34.3393
G1 X38.0131 Y33.5989
G1 X38.6608 Y32.7924
G1 X39.2276 Y31.9272
G1 X39.7083 Y31.0113
G1 X40.0985 Y30.0532
G1 X40.3943 Y29.0620
G1 X40.5930 Y28.0468
G1 X40.6928 Y27.0173
G1 Y25.9827
G1 X40.5930 Y24.9532
G1 X40.3943 Y23.9381
G1 X40.0985 Y22.9469
G1 X39.7083 Y21.9887
G1 X39.2277 Y21.0729
G1 X38.6608 Y20.2076
G1 X38.0131 Y19.4011
G1 X37.2904 Y18.6608
G1 X36.4998 Y17.9938
G1 X35.6486 Y17.4062
G1 X34.7445 Y16.9035
G1 X33.7961 Y16.4904
G1 X32.8123 Y16.1707
G1 X31.8023 Y15.9475
G1 X30.7755 Y15.8228
G1 X29.7413 Y15.7978
G1 X28.7096 Y15.8727
G1 X27.6900 Y16.0469
G1 X26.6918 Y16.3187
G1 X25.7246 Y16.6855
G00 Z4.9900
G00 X11.6241 Y19.4904
G1 Z0.0900 F300
G1 X11.4883 Y19.1740 Z0.0293
G1 X11.2915 Y18.8913 Z-0.0315
G1 X11.0419 Y18.6540 Z-0.0922
G1 X10.7496 Y18.4718 Z-0.1529
G1 X10.4266 Y18.3522 Z-0.2136
G1 X10.0862 Y18.3000 Z-0.2744
G1 X9.7422 Y18.3175 Z-0.3351
G1 X9.4089 Y18.4038 Z-0.3958
G1 X9.0996 Y18.5555 Z-0.4565
G1 X8.8273 Y18.7663 Z-0.5173
G1 X8.6030 Y19.0276 Z-0.5780
G1 X8.4358 Y19.3288 Z-0.6387
G1 X8.3327 Y19.6574 Z-0.6995
G1 X8.2979 Y20.0 Z-0.7602
G1 X8.3327 Y20.3427 Z-0.8209
G1 X8.4358 Y20.6712 Z-0.8816
G1 X8.6030 Y20.9724 Z-0.9424
G1 X8.8273 Y21.2337 Z-1.0031
G1 X9.0996 Y21.4445 Z-1.0638
G1 X9.4088 Y21.5962 Z-1.1246
G1 X9.7423 Y21.6825 Z-1.1853
G1 X10.0863 Y21.7000 Z-1.2460
G1 X10.4266 Y21.6478 Z-1.3067
G1 X10.7497 Y21.5282 Z-1.3675
G1 X11.0419 Y21.3460 Z-1.4282
G1 X11.2916 Y21.1088 Z-1.4889
G1 X11.4883 Y20.8261 Z-1.5497
G1 X11.6241 Y20.5096 Z-1.6104
G1 X11.6934 Y20.1722 Z-1.6711
G1 Y19.8279 Z-1.7318
G1 X11.6241 Y19.4904 Z-1.7926
G1 X11.4883 Y19.1740 Z-1.8533
G1 X11.2915 Y18.8913 Z-1.9140
G1 X11.0419 Y18.6540 Z-1.9748
G1 X10.7496 Y18.4718 Z-2.0355
G1 X10.4266 Y18.3522 Z-2.0962
G1 X10.0862 Y18.3000 Z-2.1570
G1 X9.7422 Y18.3175 Z-2.2177
G1 X9.4089 Y18.4038 Z-2.2784
G1 X9.0996 Y18.5555 Z-2.3391
G1 X8.8273 Y18.7663 Z-2.3999
G1 X8.6030 Y19.0276 Z-2.4606
G1 X8.4358 Y19.3288 Z-2.5213
G1 X8.3327 Y19.6574 Z-2.5821
G1 X8.2979 Y20.0 Z-2.6428
G1 X8.3327 Y20.3427 Z-2.7035
G1 X8.4358 Y20.6712 Z-2.7642
G1 X8.6030 Y20.9724 Z-2.8250
G1 X8.8273 Y21.2337 Z-2.8857
G1 X9.0996 Y21.4445 Z-2.9464
G1 X9.4088 Y21.5962 Z-3.0072
G1 X9.7423 Y21.6825 Z-3.0100
G1 X10.0863 Y21.7000 F640
G1 X10.4266 Y21.6478
G1 X10.7497 Y21.5282
G1 X11.0419 Y21.3460
G1 X11.2916 Y21.1088
G1 X11.4883 Y20.8261
G1 X11.6241 Y20.5096
G1 X11.6934 Y20.1722
G1 Y19.8279
G1 X11.6241 Y19.4904
G1 X11.4883 Y19.1740
G1 X11.2915 Y18.8913
G1 X11.0419 Y18.6540
G1 X10.7496 Y18.4718
G1 X10.4266 Y18.3522
G1 X10.0862 Y18.3000
G1 X9.7422 Y18.3175
G1 X9.4089 Y18.4038
G1 X9.0996 Y18.5555
G1 X8.8273 Y18.7663
G1 X8.6030 Y19.0276
G1 X8.4358 Y19.3288
G1 X8.3327 Y19.6574
G1 X8.2979 Y20.0
G1 X8.3327 Y20.3427
G1 X8.4358 Y20.6712
G1 X8.6030 Y20.9724
G1 X8.8273 Y21.2337
G1 X9.0996 Y21.4445
G1 X9.4088 Y21.5962
G1 X9.7423 Y21.6825
G00 Z4.9900
G00 X10.0862 Y11.7000
G1 Z0.0900 F300
G1 X10.4266 Y11.6478 Z0.0293
G1 X10.7497 Y11.5282 Z-0.0315
G1 X11.0419 Y11.3461 Z-0.0922
G1 X11.2916 Y11.1087 Z-0.1529
G1 X11.4883 Y10.8261 Z-0.2136
G1 X11.6241 Y10.5096 Z-0.2744
G1 X11.6934 Y10.1722 Z-0.3351
G1 Y9.8279 Z-0.3958
G1 X11.6241 Y9.4904 Z-0.4566
G1 X11.4883 Y9.1740 Z-0.5173
G1 X11.2915 Y8.8913 Z-0.5780
G1 X11.0419 Y8.6540 Z-0.6387
G1 X10.7496 Y8.4718 Z-0.6995
G1 X10.4267 Y8.3522 Z-0.7602
G1 X10.0862 Y8.3000 Z-0.8209
G1 X9.7422 Y8.3175 Z-0.8817
G1 X9.4089 Y8.4038 Z-0.9424
G1 X9.0996 Y8.5555 Z-1.0031
G1 X8.8273 Y8.7663 Z-1.0638
G1 X8.6030 Y9.0276 Z-1.1246
G1 X8.4358 Y9.3288 Z-1.1853
G1 X8.3327 Y9.6574 Z-1.2460
G1 X8.2979 Y10.0 Z-1.3068
G1 X8.3327 Y10.3427 Z-1.3675
G1 X8.4358 Y10.6713 Z-1.4282
G1 X8.6029 Y10.9724 Z-1.4889
G1 X8.8273 Y11.2337 Z-1.5497
G1 X9.0996 Y11.4445 Z-1.6104
G1 X9.4088 Y11.5962 Z-1.6711
G1 X9.7423 Y11.6825 Z-1.7319
G1 X10.0862 Y11.7000 Z-1.7926
G1 X10.4266 Y11.6478 Z-1.8533
G1 X10.7497 Y11.5282 Z-1.9140
G1 X11.0419 Y11.3461 Z-1.9748
G1 X11.2916 Y11.1087 Z-2.0355
G1 X11.4883 Y10.8261 Z-2.0962
G1 X11.6241 Y10.5096 Z-2.1569
G1 X11.6934 Y10.1722 Z-2.2177
G1 Y9.8279 Z-2.2784
G1 X11.6241 Y9.4904 Z-2.3391
G1 X11.4883 Y9.1740 Z-2.3999
G1 X11.2915 Y8.8913 Z-2.4606
G1 X11.0419 Y8.6540 Z-2.5213
G1 X10.7496 Y8.4718 Z-2.5821
G1 X10.4267 Y8.3522 Z-2.6428
G1 X10.0862 Y8.3000 Z-2.7035
G1 X9.7422 Y8.3175 Z-2.7642
G1 X9.4089 Y8.4038 Z-2.8250
G1 X9.0996 Y8.5555 Z-2.8857
G1 X8.8273 Y8.7663 Z-2.9464
G1 X8.6030 Y9.0276 Z-3.0072
G1 X8.4358 Y9.3288 Z-3.0100
G1 X8.3327 Y9.6574 F640
G1 X8.2979 Y10.0
G1 X8.3327 Y10.3427
G1 X8.4358 Y10.6713
G1 X8.6029 Y10.9724
G1 X8.8273 Y11.2337
G1 X9.0996 Y11.4445
G1 X9.4088 Y11.5962
G1 X9.7423 Y11.6825
G1 X10.0862 Y11.7000
G1 X10.4266 Y11.6478
G1 X10.7497 Y11.5282
G1 X11.0419 Y11.3461
G1 X11.2916 Y11.1087
G1 X11.4883 Y10.8261
G1 X11.6241 Y10.5096
G1 X11.6934 Y10.1722
G1 Y9.8279
G1 X11.6241 Y9.4904
G1 X11.4883 Y9.1740
G1 X11.2915 Y8.8913
G1 X11.0419 Y8.6540
G1 X10.7496 Y8.4718
G1 X10.4267 Y8.3522
G1 X10.0862 Y8.3000
G1 X9.7422 Y8.3175
G1 X9.4089 Y8.4038
G1 X9.0996 Y8.5555
G1 X8.8273 Y8.7663
G1 X8.6030 Y9.0276
G1 X8.4358 Y9.3288
G00 Z4.9900
G00 X28.1717 Y41.0839
G1 Z0.0900 F300
G1 X27.7143 Y41.3957 Z-0.0076
G1 X27.3085 Y41.7722 Z-0.1052
G1 X26.9633 Y42.2051 Z-0.2028
G1 X26.6865 Y42.6845 Z-0.3005
G1 X26.4843 Y43.1998 Z-0.3981
G1 X26.3610 Y43.7396 Z-0.4957
G1 X26.3175 Y44.3213 Z-0.5985
G1 Y68.7989 Z-3.0100
G1 X26.3610 Y69.3806 F640
G1 X26.4843 Y69.9204
G1 X26.6865 Y70.4356
G1 X26.9633 Y70.9151
G1 X27.3085 Y71.3479
G1 X27.7143 Y71.7245
G1 X28.1716 Y72.0363
G1 X28.6705 Y72.2765
G1 X29.1995 Y72.4397
G1 X29.7469 Y72.5222
G1 X30.3005
G1 X30.8479 Y72.4397
G1 X31.3769 Y72.2765
G1 X31.8757 Y72.0363
G1 X32.3331 Y71.7245
G1 X32.7389 Y71.3479
G1 X33.0841 Y70.9151
G1 X33.3609 Y70.4357
G1 X33.5632 Y69.9203
G1 X33.6864 Y69.3806
G1 X33.7300 Y68.7989
G1 Y44.3213
G1 X33.6864 Y43.7396
G1 X33.5632 Y43.1998
G1 X33.3609 Y42.6845
G1 X33.0841 Y42.2051
G1 X32.7389 Y41.7722
G1 X32.3331 Y41.3957
G1 X31.8757 Y41.0839
G1 X31.3769 Y40.8436
G1 X30.8479 Y40.6805
G1 X30.3005 Y40.5980
G1 X29.7469
G1 X29.1995 Y40.6805
G1 X28.6705 Y40.8436
G1 X28.1717 Y41.0839
G1 X27.7143 Y41.3957
G1 X27.3085 Y41.7722
G1 X26.9633 Y42.2051
G1 X26.6865 Y42.6845
G1 X26.4843 Y43.1998
G1 X26.3610 Y43.7396
G1 X26.3175 Y44.3213
G1 Y68.7989
G00 Z4.9900
G00 X10.9854 Y67.5996
G1 Z0.0900 F300
G1 X10.9616 Y67.4186 Z0.0578
G1 X10.8917 Y67.2499 Z0.0256
G1 X10.7806 Y67.1051 Z-0.0066
G1 X10.6357 Y66.9939 Z-0.0388
G1 X10.4670 Y66.9240 Z-0.0710
G1 X10.2860 Y66.9002 Z-0.1032
G1 X10.1050 Y66.9240 Z-0.1353
G1 X9.9363 Y66.9939 Z-0.1676
G1 X9.7915 Y67.1050 Z-0.1997
G1 X9.6803 Y67.2499 Z-0.2319
G1 X9.6104 Y67.4186 Z-0.2641
G1 X9.5866 Y67.5996 Z-0.2963
G1 X9.6104 Y67.7806 Z-0.3285
G1 X9.6803 Y67.9493 Z-0.3607
G1 X9.7914 Y68.0941 Z-0.3929
G1 X9.9363 Y68.2053 Z-0.4251
G1 X10.1050 Y68.2752 Z-0.4573
G1 X10.2860 Y68.2990 Z-0.4895
G1 X10.4670 Y68.2752 Z-0.5217
G1 X10.6357 Y68.2053 Z-0.5539
G1 X10.7806 Y68.0941 Z-0.5861
G1 X10.8917 Y67.9493 Z-0.6183
G1 X10.9616 Y67.7806 Z-0.6505
G1 X10.9854 Y67.5996 Z-0.6827
G1 X10.9616 Y67.4186 Z-0.7148
G1 X10.8917 Y67.2499 Z-0.7470
G1 X10.7806 Y67.1051 Z-0.7792
G1 X10.6357 Y66.9939 Z-0.8114
G1 X10.4670 Y66.9240 Z-0.8436
G1 X10.2860 Y66.9002 Z-0.8758
G1 X10.1050 Y66.9240 Z-0.9080
G1 X9.9363 Y66.9939 Z-0.9402
G1 X9.7915 Y67.1050 Z-0.9724
G1 X9.6803 Y67.2499 Z-1.0046
G1 X9.6104 Y67.4186 Z-1.0368
G1 X9.5866 Y67.5996 Z-1.0690
G1 X9.6104 Y67.7806 Z-1.1012
G1 X9.6803 Y67.9493 Z-1.1334
G1 X9.7914 Y68.0941 Z-1.1656
G1 X9.9363 Y68.2053 Z-1.1978
G1 X10.1050 Y68.2752 Z-1.2299
G1 X10.2860 Y68.2990 Z-1.2621
G1 X10.4670 Y68.2752 Z-1.2943
G1 X10.6357 Y68.2053 Z-1.3265
G1 X10.7806 Y68.0941 Z-1.3587
G1 X10.8917 Y67.9493 Z-1.3909
G1 X10.9616 Y67.7806 Z-1.4231
G1 X10.9854 Y67.5996 Z-1.4553
G1 X10.9616 Y67.4186 Z-1.4875
G1 X10.8917 Y67.2499 Z-1.5197
G1 X10.7806 Y67.1051 Z-1.5519
G1 X10.6357 Y66.9939 Z-1.5841
G1 X10.4670 Y66.9240 Z-1.6163
G1 X10.2860 Y66.9002 Z-1.6485
G1 X10.1050 Y66.9240 Z-1.6807
G1 X9.9363 Y66.9939 Z-1.7129
G1 X9.7915 Y67.1050 Z-1.7451
G1 X9.6803 Y67.2499 Z-1.7772
G1 X9.6104 Y67.4186 Z-1.8094
G1 X9.5866 Y67.5996 Z-1.8416
G1 X9.6104 Y67.7806 Z-1.8738
G1 X9.6803 Y67.9493 Z-1.9060
G1 X9.7914 Y68.0941 Z-1.9382
G1 X9.9363 Y68.2053 Z-1.9704
G1 X10.1050 Y68.2752 Z-2.0026
G1 X10.2860 Y68.2990 Z-2.0348
G1 X10.4670 Y68.2752 Z-2.0670
G1 X10.6357 Y68.2053 Z-2.0992
G1 X10.7806 Y68.0941 Z-2.1314
G1 X10.8917 Y67.9493 Z-2.1636
G1 X10.9616 Y67.7806 Z-2.1958
G1 X10.9854 Y67.5996 Z-2.2280
G1 X10.9616 Y67.4186 Z-2.2601
G1 X10.8917 Y67.2499 Z-2.2924
G1 X10.7806 Y67.1051 Z-2.3245
G1 X10.6357 Y66.9939 Z-2.3567
G1 X10.4670 Y66.9240 Z-2.3889
G1 X10.2860 Y66.9002 Z-2.4211
G1 X10.1050 Y66.9240 Z-2.4533
G1 X9.9363 Y66.9939 Z-2.4855
G1 X9.7915 Y67.1050 Z-2.5177
G1 X9.6803 Y67.2499 Z-2.5499
G1 X9.6104 Y67.4186 Z-2.5821
G1 X9.5866 Y67.5996 Z-2.6143
G1 X9.6104 Y67.7806 Z-2.6465
G1 X9.6803 Y67.9493 Z-2.6787
G1 X9.7914 Y68.0941 Z-2.7109
G1 X9.9363 Y68.2053 Z-2.7431
G1 X10.1050 Y68.2752 Z-2.7753
G1 X10.2860 Y68.2990 Z-2.8075
G1 X10.4670 Y68.2752 Z-2.8396
G1 X10.6357 Y68.2053 Z-2.8718
G1 X10.7806 Y68.0941 Z-2.9040
G1 X10.8917 Y67.9493 Z-2.9362
G1 X10.9616 Y67.7806 Z-2.9684
G1 X10.9854 Y67.5996 Z-3.0006
G1 X10.9616 Y67.4186 Z-3.0100
G1 X10.8917 Y67.2499 F640
G1 X10.7806 Y67.1051
G1 X10.6357 Y66.9939
G1 X10.4670 Y66.9240
G1 X10.2860 Y66.9002
G1 X10.1050 Y66.9240
G1 X9.9363 Y66.9939
G1 X9.7915 Y67.1050
G1 X9.6803 Y67.2499
G1 X9.6104 Y67.4186
G1 X9.5866 Y67.5996
G1 X9.6104 Y67.7806
G1 X9.6803 Y67.9493
G1 X9.7914 Y68.0941
G1 X9.9363 Y68.2053
G1 X10.1050 Y68.2752
G1 X10.2860 Y68.2990
G1 X10.4670 Y68.2752
G1 X10.6357 Y68.2053
G1 X10.7806 Y68.0941
G1 X10.8917 Y67.9493
G1 X10.9616 Y67.7806
G1 X10.9854 Y67.5996
G1 X10.9616 Y67.4186
G1 X10.8917 Y67.2499 Z-3.0422 F300
G1 X10.7806 Y67.1051 Z-3.0744
G1 X10.6357 Y66.9939 Z-3.1066
G1 X10.4670 Y66.9240 Z-3.1388
G1 X10.2860 Y66.9002 Z-3.1710
G1 X10.1050 Y66.9240 Z-3.2032
G1 X9.9363 Y66.9939 Z-3.2354
G1 X9.7915 Y67.1050 Z-3.2676
G1 X9.6803 Y67.2499 Z-3.2997
G1 X9.6104 Y67.4186 Z-3.3320
G1 X9.5866 Y67.5996 Z-3.3641
G1 X9.6104 Y67.7806 Z-3.3963
G1 X9.6803 Y67.9493 Z-3.4285
G1 X9.7914 Y68.0941 Z-3.4607
G1 X9.9363 Y68.2053 Z-3.4929
G1 X10.1050 Y68.2752 Z-3.5251
G1 X10.2860 Y68.2990 Z-3.5573
G1 X10.4670 Y68.2752 Z-3.5895
G1 X10.6357 Y68.2053 Z-3.6217
G1 X10.7806 Y68.0941 Z-3.6539
G1 X10.8917 Y67.9493 Z-3.6861
G1 X10.9616 Y67.7806 Z-3.7183
G1 X10.9854 Y67.5996 Z-3.7505
G1 X10.9616 Y67.4186 Z-3.7827
G1 X10.8917 Y67.2499 Z-3.8149
G1 X10.7806 Y67.1051 Z-3.8470
G1 X10.6357 Y66.9939 Z-3.8792
G1 X10.4670 Y66.9240 Z-3.9114
G1 X10.2860 Y66.9002 Z-3.9436
G1 X10.1050 Y66.9240 Z-3.9758
G1 X9.9363 Y66.9939 Z-4.0080
G1 X9.7915 Y67.1050 Z-4.0100
G1 X9.6803 Y67.2499 F640
G1 X9.6104 Y67.4186
G1 X9.5866 Y67.5996
G1 X9.6104 Y67.7806
G1 X9.6803 Y67.9493
G1 X9.7914 Y68.0941
G1 X9.9363 Y68.2053
G1 X10.1050 Y68.2752
G1 X10.2860 Y68.2990
G1 X10.4670 Y68.2752
G1 X10.6357 Y68.2053
G1 X10.7806 Y68.0941
G1 X10.8917 Y67.9493
G1 X10.9616 Y67.7806
G1 X10.9854 Y67.5996
G1 X10.9616 Y67.4186
G1 X10.8917 Y67.2499
G1 X10.7806 Y67.1051
G1 X10.6357 Y66.9939
G1 X10.4670 Y66.9240
G1 X10.2860 Y66.9002
G1 X10.1050 Y66.9240
G1 X9.9363 Y66.9939
G1 X9.7915 Y67.1050
G00 Z4.9900
G00 X4.2063 Y69.0260
G1 Z0.0900 F300
G1 Y4.2062 Z-4.0100
G1 X55.7938 F640
G1 Y26.1610
G1 X47.5792
G1 X47.5938 Y26.6673
G1 X47.5289 Y28.0198
G1 X47.3601 Y29.3632
G1 X47.0885 Y30.6899
G1 X46.7157 Y31.9916
G1 X46.2439 Y33.2607
G1 X45.6758 Y34.4899
G1 X45.0150 Y35.6718
G1 X44.2651 Y36.7993
G1 X43.4309 Y37.8659
G1 X42.5171 Y38.8650
G1 X41.5290 Y39.7911
G1 X40.7937 Y40.3809
G1 X40.7938 Y69.0260
G1 X40.7373 Y69.8870
G1 X40.5639 Y70.7588
G1 X40.2782 Y71.6005
G1 X39.8850 Y72.3977
G1 X39.3912 Y73.1368
G1 X38.8051 Y73.8051
G1 X38.1368 Y74.3912
G1 X37.3977 Y74.8850
G1 X36.6005 Y75.2782
G1 X35.7588 Y75.5639
G1 X34.8870 Y75.7373
G1 X34.0260 Y75.7938
G1 X10.9740
G1 X10.1130 Y75.7373
G1 X9.2412 Y75.5639
G1 X8.3995 Y75.2782
G1 X7.6023 Y74.8850
G1 X6.8632 Y74.3912
G1 X6.1949 Y73.8051
G1 X5.6088 Y73.1368
G1 X5.1150 Y72.3977
G1 X4.7218 Y71.6005
G1 X4.4361 Y70.7588
G1 X4.2627 Y69.8870
G1 X4.2063 Y69.0260
G1 Y4.2062
G00 Z4.9900
G00 X8.8273 Y8.7663
G1 Z0.0900 F300
G1 X8.6030 Y9.0276 Z0.0293
G1 X8.4358 Y9.3288 Z-0.0315
G1 X8.3327 Y9.6574 Z-0.0922
G1 X8.2979 Y10.0 Z-0.1529
G1 X8.3327 Y10.3427 Z-0.2136
G1 X8.4358 Y10.6713 Z-0.2744
G1 X8.6029 Y10.9724 Z-0.3351
G1 X8.8273 Y11.2337 Z-0.3958
G1 X9.0996 Y11.4445 Z-0.4566
G1 X9.4088 Y11.5962 Z-0.5173
G1 X9.7423 Y11.6825 Z-0.5780
G1 X10.0862 Y11.7000 Z-0.6387
G1 X10.4266 Y11.6478 Z-0.6995
G1 X10.7497 Y11.5282 Z-0.7602
G1 X11.0419 Y11.3461 Z-0.8209
G1 X11.2916 Y11.1087 Z-0.8817
G1 X11.4883 Y10.8261 Z-0.9424
G1 X11.6241 Y10.5096 Z-1.0031
G1 X11.6934 Y10.1722 Z-1.0639
G1 Y9.8279 Z-1.1246
G1 X11.6241 Y9.4904 Z-1.1853
G1 X11.4883 Y9.1740 Z-1.2460
G1 X11.2915 Y8.8913 Z-1.3068
G1 X11.0419 Y8.6540 Z-1.3675
G1 X10.7496 Y8.4718 Z-1.4282
G1 X10.4267 Y8.3522 Z-1.4889
G1 X10.0862 Y8.3000 Z-1.5497
G1 X9.7422 Y8.3175 Z-1.6104
G1 X9.4089 Y8.4038 Z-1.6711
G1 X9.0996 Y8.5555 Z-1.7319
G1 X8.8273 Y8.7663 Z-1.7926
G1 X8.6030 Y9.0276 Z-1.8533
G1 X8.4358 Y9.3288 Z-1.9140
G1 X8.3327 Y9.6574 Z-1.9748
G1 X8.2979 Y10.0 Z-2.0355
G1 X8.3327 Y10.3427 Z-2.0962
G1 X8.4358 Y10.6713 Z-2.1570
G1 X8.6029 Y10.9724 Z-2.2177
G1 X8.8273 Y11.2337 Z-2.2784
G1 X9.0996 Y11.4445 Z-2.3391
G1 X9.4088 Y11.5962 Z-2.3999
G1 X9.7423 Y11.6825 Z-2.4606
G1 X10.0862 Y11.7000 Z-2.5213
G1 X10.4266 Y11.6478 Z-2.5821
G1 X10.7497 Y11.5282 Z-2.6428
G1 X11.0419 Y11.3461 Z-2.7035
G1 X11.2916 Y11.1087 Z-2.7642
G1 X11.4883 Y10.8261 Z-2.8250
G1 X11.6241 Y10.5096 Z-2.8857
G1 X11.6934 Y10.1722 Z-2.9464
G1 Y9.8279 Z-3.0072
G1 X11.6241 Y9.4904 Z-3.0679
G1 X11.4883 Y9.1740 Z-3.1286
G1 X11.2915 Y8.8913 Z-3.1893
G1 X11.0419 Y8.6540 Z-3.2501
G1 X10.7496 Y8.4718 Z-3.3108
G1 X10.4267 Y8.3522 Z-3.3715
G1 X10.0862 Y8.3000 Z-3.4323
G1 X9.7422 Y8.3175 Z-3.4930
G1 X9.4089 Y8.4038 Z-3.5537
G1 X9.0996 Y8.5555 Z-3.6145
G1 X8.8273 Y8.7663 Z-3.6752
G1 X8.6030 Y9.0276 Z-3.7359
G1 X8.4358 Y9.3288 Z-3.7966
G1 X8.3327 Y9.6574 Z-3.8574
G1 X8.2979 Y10.0 Z-3.9181
G1 X8.3327 Y10.3427 Z-3.9788
G1 X8.4358 Y10.6713 Z-4.0100
G1 X8.6029 Y10.9724 F640
G1 X8.8273 Y11.2337
G1 X9.0996 Y11.4445
G1 X9.4088 Y11.5962
G1 X9.7423 Y11.6825
G1 X10.0862 Y11.7000
G1 X10.4266 Y11.6478
G1 X10.7497 Y11.5282
G1 X11.0419 Y11.3461
G1 X11.2916 Y11.1087
G1 X11.4883 Y10.8261
G1 X11.6241 Y10.5096
G1 X11.6934 Y10.1722
G1 Y9.8279
G1 X11.6241 Y9.4904
G1 X11.4883 Y9.1740
G1 X11.2915 Y8.8913
G1 X11.0419 Y8.6540
G1 X10.7496 Y8.4718
G1 X10.4267 Y8.3522
G1 X10.0862 Y8.3000
G1 X9.7422 Y8.3175
G1 X9.4089 Y8.4038
G1 X9.0996 Y8.5555
G1 X8.8273 Y8.7663
G1 X8.6030 Y9.0276
G1 X8.4358 Y9.3288
G1 X8.3327 Y9.6574
G1 X8.2979 Y10.0
G1 X8.3327 Y10.3427
G1 X8.4358 Y10.6713
G00 Z4.9900
G00 X9.7422 Y18.3175
G1 Z0.0900 F300
G1 X9.4089 Y18.4038 Z0.0293
G1 X9.0996 Y18.5555 Z-0.0315
G1 X8.8273 Y18.7663 Z-0.0922
G1 X8.6030 Y19.0276 Z-0.1529
G1 X8.4358 Y19.3288 Z-0.2136
G1 X8.3327 Y19.6574 Z-0.2744
G1 X8.2979 Y20.0 Z-0.3351
G1 X8.3327 Y20.3427 Z-0.3958
G1 X8.4358 Y20.6712 Z-0.4566
G1 X8.6030 Y20.9724 Z-0.5173
G1 X8.8273 Y21.2337 Z-0.5780
G1 X9.0996 Y21.4445 Z-0.6387
G1 X9.4088 Y21.5962 Z-0.6995
G1 X9.7423 Y21.6825 Z-0.7602
G1 X10.0863 Y21.7000 Z-0.8209
G1 X10.4266 Y21.6478 Z-0.8817
G1 X10.7497 Y21.5282 Z-0.9424
G1 X11.0419 Y21.3460 Z-1.0031
G1 X11.2916 Y21.1088 Z-1.0638
G1 X11.4883 Y20.8261 Z-1.1246
G1 X11.6241 Y20.5096 Z-1.1853
G1 X11.6934 Y20.1722 Z-1.2460
G1 Y19.8279 Z-1.3068
G1 X11.6241 Y19.4904 Z-1.3675
G1 X11.4883 Y19.1740 Z-1.4282
G1 X11.2915 Y18.8913 Z-1.4889
G1 X11.0419 Y18.6540 Z-1.5497
G1 X10.7496 Y18.4718 Z-1.6104
G1 X10.4266 Y18.3522 Z-1.6711
G1 X10.0862 Y18.3000 Z-1.7319
G1 X9.7422 Y18.3175 Z-1.7926
G1 X9.4089 Y18.4038 Z-1.8533
G1 X9.0996 Y18.5555 Z-1.9140
G1 X8.8273 Y18.7663 Z-1.9748
G1 X8.6030 Y19.0276 Z-2.0355
G1 X8.4358 Y19.3288 Z-2.0962
G1 X8.3327 Y19.6574 Z-2.1570
G1 X8.2979 Y20.0 Z-2.2177
G1 X8.3327 Y20.3427 Z-2.2784
G1 X8.4358 Y20.6712 Z-2.3391
G1 X8.6030 Y20.9724 Z-2.3999
G1 X8.8273 Y21.2337 Z-2.4606
G1 X9.0996 Y21.4445 Z-2.5213
G1 X9.4088 Y21.5962 Z-2.5821
G1 X9.7423 Y21.6825 Z-2.6428
G1 X10.0863 Y21.7000 Z-2.7035
G1 X10.4266 Y21.6478 Z-2.7642
G1 X10.7497 Y21.5282 Z-2.8250
G1 X11.0419 Y21.3460 Z-2.8857
G1 X11.2916 Y21.1088 Z-2.9464
G1 X11.4883 Y20.8261 Z-3.0072
G1 X11.6241 Y20.5096 Z-3.0679
G1 X11.6934 Y20.1722 Z-3.1286
G1 Y19.8279 Z-3.1893
G1 X11.6241 Y19.4904 Z-3.2501
G1 X11.4883 Y19.1740 Z-3.3108
G1 X11.2915 Y18.8913 Z-3.3715
G1 X11.0419 Y18.6540 Z-3.4323
G1 X10.7496 Y18.4718 Z-3.4930
G1 X10.4266 Y18.3522 Z-3.5537
G1 X10.0862 Y18.3000 Z-3.6144
G1 X9.7422 Y18.3175 Z-3.6752
G1 X9.4089 Y18.4038 Z-3.7359
G1 X9.0996 Y18.5555 Z-3.7966
G1 X8.8273 Y18.7663 Z-3.8574
G1 X8.6030 Y19.0276 Z-3.9181
G1 X8.4358 Y19.3288 Z-3.9788
G1 X8.3327 Y19.6574 Z-4.0100
G1 X8.2979 Y20.0 F640
G1 X8.3327 Y20.3427
G1 X8.4358 Y20.6712
G1 X8.6030 Y20.9724
G1 X8.8273 Y21.2337
G1 X9.0996 Y21.4445
G1 X9.4088 Y21.5962
G1 X9.7423 Y21.6825
G1 X10.0863 Y21.7000
G1 X10.4266 Y21.6478
G1 X10.7497 Y21.5282
G1 X11.0419 Y21.3460
G1 X11.2916 Y21.1088
G1 X11.4883 Y20.8261
G1 X11.6241 Y20.5096
G1 X11.6934 Y20.1722
G1 Y19.8279
G1 X11.6241 Y19.4904
G1 X11.4883 Y19.1740
G1 X11.2915 Y18.8913
G1 X11.0419 Y18.6540
G1 X10.7496 Y18.4718
G1 X10.4266 Y18.3522
G1 X10.0862 Y18.3000
G1 X9.7422 Y18.3175
G1 X9.4089 Y18.4038
G1 X9.0996 Y18.5555
G1 X8.8273 Y18.7663
G1 X8.6030 Y19.0276
G1 X8.4358 Y19.3288
G1 X8.3327 Y19.6574
G00 Z4.9900
G00 X19.7417 Y23.4389
G1 Z0.0900 F300
G1 X19.4941 Y24.4432 Z-0.0924
G1 X19.3447 Y25.4668 Z-0.2748
G1 X19.2947 Y26.5000 Z-0.4572
G1 X19.3447 Y27.5332 Z-0.6396
G1 X19.4941 Y28.5569 Z-0.8220
G1 X19.7417 Y29.5611 Z-1.0044
G1 X20.0850 Y30.5370 Z-1.1868
G1 X20.5209 Y31.4750 Z-1.3692
G1 X21.0454 Y32.3667 Z-1.5516
G1 X21.6533 Y33.2035 Z-1.7339
G1 X22.3394 Y33.9778 Z-1.9164
G1 X23.0968 Y34.6823 Z-2.0988
G1 X23.9187 Y35.3103 Z-2.2811
G1 X24.7974 Y35.8561 Z-2.4635
G1 X25.7246 Y36.3145 Z-2.6459
G1 X26.6919 Y36.6814 Z-2.8283
G1 X27.6900 Y36.9531 Z-3.0107
G1 X28.7097 Y37.1273 Z-3.1931
G1 X29.7412 Y37.2022 Z-3.3755
G1 X30.7755 Y37.1772 Z-3.5579
G1 X31.8023 Y37.0525 Z-3.7403
G1 X32.8123 Y36.8293 Z-3.9227
G1 X33.7962 Y36.5097 Z-4.0100
G1 X34.7445 Y36.0965 F640
G1 X35.6486 Y35.5938
G1 X36.4999 Y35.0062
G1 X37.2904 Y34.3393
G1 X38.0131 Y33.5989
G1 X38.6608 Y32.7924
G1 X39.2276 Y31.9272
G1 X39.7083 Y31.0113
G1 X40.0985 Y30.0532
G1 X40.3943 Y29.0620
G1 X40.5930 Y28.0468
G1 X40.6928 Y27.0173
G1 Y25.9827
G1 X40.5930 Y24.9532
G1 X40.3943 Y23.9381
G1 X40.0985 Y22.9469
G1 X39.7083 Y21.9887
G1 X39.2277 Y21.0729
G1 X38.6608 Y20.2076
G1 X38.0131 Y19.4011
G1 X37.2904 Y18.6608
G1 X36.4998 Y17.9938
G1 X35.6486 Y17.4062
G1 X34.7445 Y16.9035
G1 X33.7961 Y16.4904
G1 X32.8123 Y16.1707
G1 X31.8023 Y15.9475
G1 X30.7755 Y15.8228
G1 X29.7413 Y15.7978
G1 X28.7096 Y15.8727
G1 X27.6900 Y16.0469
G1 X26.6918 Y16.3187
G1 X25.7246 Y16.6855
G1 X24.7975 Y17.1439
G1 X23.9187 Y17.6897
G1 X23.0968 Y18.3178
G1 X22.3393 Y19.0222
G1 X21.6534 Y19.7964
G1 X21.0453 Y20.6334
G1 X20.5209 Y21.5250
G1 X20.0850 Y22.4631
G1 X19.7417 Y23.4389
G1 X19.4941 Y24.4432
G1 X19.3447 Y25.4668
G1 X19.2947 Y26.5000
G1 X19.3447 Y27.5332
G1 X19.4941 Y28.5569
G1 X19.7417 Y29.5611
G1 X20.0850 Y30.5370
G1 X20.5209 Y31.4750
G1 X21.0454 Y32.3667
G1 X21.6533 Y33.2035
G1 X22.3394 Y33.9778
G1 X23.0968 Y34.6823
G1 X23.9187 Y35.3103
G1 X24.7974 Y35.8561
G1 X25.7246 Y36.3145
G1 X26.6919 Y36.6814
G1 X27.6900 Y36.9531
G1 X28.7097 Y37.1273
G1 X29.7412 Y37.2022
G1 X30.7755 Y37.1772
G1 X31.8023 Y37.0525
G1 X32.8123 Y36.8293
G1 X33.7962 Y36.5097
G00 Z4.9900
G00 X31.8757 Y41.0839
G1 Z0.0900 F300
G1 X31.3769 Y40.8436 Z-0.0076
G1 X30.8479 Y40.6805 Z-0.1052
G1 X30.3005 Y40.5980 Z-0.2029
G1 X29.7469 Z-0.3005
G1 X29.1995 Y40.6805 Z-0.3981
G1 X28.6705 Y40.8436 Z-0.4957
G1 X28.1717 Y41.0839 Z-0.5933
G1 X27.7143 Y41.3957 Z-0.6909
G1 X27.3085 Y41.7722 Z-0.7885
G1 X26.9633 Y42.2051 Z-0.8862
G1 X26.6865 Y42.6845 Z-0.9838
G1 X26.4843 Y43.1998 Z-1.0814
G1 X26.3610 Y43.7396 Z-1.1790
G1 X26.3175 Y44.3213 Z-1.2819
G1 Y68.7989 Z-4.0100
G1 X26.3610 Y69.3806 F640
G1 X26.4843 Y69.9204
G1 X26.6865 Y70.4356
G1 X26.9633 Y70.9151
G1 X27.3085 Y71.3479
G1 X27.7143 Y71.7245
G1 X28.1716 Y72.0363
G1 X28.6705 Y72.2765
G1 X29.1995 Y72.4397
G1 X29.7469 Y72.5222
G1 X30.3005
G1 X30.8479 Y72.4397
G1 X31.3769 Y72.2765
G1 X31.8757 Y72.0363
G1 X32.3331 Y71.7245
G1 X32.7389 Y71.3479
G1 X33.0841 Y70.9151
G1 X33.3609 Y70.4357
G1 X33.5632 Y69.9203
G1 X33.6864 Y69.3806
G1 X33.7300 Y68.7989
G1 Y44.3213
G1 X33.6864 Y43.7396
G1 X33.5632 Y43.1998
G1 X33.3609 Y42.6845
G1 X33.0841 Y42.2051
G1 X32.7389 Y41.7722
G1 X32.3331 Y41.3957
G1 X31.8757 Y41.0839
G1 X31.3769 Y40.8436
G1 X30.8479 Y40.6805
G1 X30.3005 Y40.5980
G1 X29.7469
G1 X29.1995 Y40.6805
G1 X28.6705 Y40.8436
G1 X28.1717 Y41.0839
G1 X27.7143 Y41.3957
G1 X27.3085 Y41.7722
G1 X26.9633 Y42.2051
G1 X26.6865 Y42.6845
G1 X26.4843 Y43.1998
G1 X26.3610 Y43.7396
G1 X26.3175 Y44.3213
G1 Y68.7989
G00 Z4.9900
G00 X49.4088 Y21.5962
G1 Z0.0900 F300
G1 X49.7423 Y21.6825 Z0.0293
G1 X50.0862 Y21.7000 Z-0.0315
G1 X50.4266 Y21.6478 Z-0.0922
G1 X50.7496 Y21.5283 Z-0.1529
G1 X51.0419 Y21.3460 Z-0.2136
G1 X51.2915 Y21.1088 Z-0.2744
G1 X51.4883 Y20.8261 Z-0.3351
G1 X51.6241 Y20.5096 Z-0.3958
G1 X51.6934 Y20.1722 Z-0.4566
G1 Y19.8278 Z-0.5173
G1 X51.6241 Y19.4904 Z-0.5780
G1 X51.4883 Y19.1740 Z-0.6387
G1 X51.2915 Y18.8913 Z-0.6995
G1 X51.0419 Y18.6540 Z-0.7602
G1 X50.7496 Y18.4718 Z-0.8209
G1 X50.4266 Y18.3522 Z-0.8817
G1 X50.0862 Y18.3000 Z-0.9424
G1 X49.7423 Y18.3175 Z-1.0031
G1 X49.4088 Y18.4038 Z-1.0638
G1 X49.0996 Y18.5555 Z-1.1246
G1 X48.8273 Y18.7663 Z-1.1853
G1 X48.6029 Y19.0276 Z-1.2460
G1 X48.4358 Y19.3288 Z-1.3068
G1 X48.3327 Y19.6573 Z-1.3675
G1 X48.2978 Y20.0001 Z-1.4282
G1 X48.3326 Y20.3425 Z-1.4889
G1 X48.4358 Y20.6713 Z-1.5497
G1 X48.6029 Y20.9724 Z-1.6104
G1 X48.8273 Y21.2338 Z-1.6711
G1 X49.0996 Y21.4445 Z-1.7319
G1 X49.4088 Y21.5962 Z-1.7926
G1 X49.7423 Y21.6825 Z-1.8533
G1 X50.0862 Y21.7000 Z-1.9141
G1 X50.4266 Y21.6478 Z-1.9748
G1 X50.7496 Y21.5283 Z-2.0355
G1 X51.0419 Y21.3460 Z-2.0962
G1 X51.2915 Y21.1088 Z-2.1570
G1 X51.4883 Y20.8261 Z-2.2177
G1 X51.6241 Y20.5096 Z-2.2784
G1 X51.6934 Y20.1722 Z-2.3391
G1 Y19.8278 Z-2.3999
G1 X51.6241 Y19.4904 Z-2.4606
G1 X51.4883 Y19.1740 Z-2.5213
G1 X51.2915 Y18.8913 Z-2.5821
G1 X51.0419 Y18.6540 Z-2.6428
G1 X50.7496 Y18.4718 Z-2.7035
G1 X50.4266 Y18.3522 Z-2.7643
G1 X50.0862 Y18.3000 Z-2.8250
G1 X49.7423 Y18.3175 Z-2.8857
G1 X49.4088 Y18.4038 Z-2.9464
G1 X49.0996 Y18.5555 Z-3.0072
G1 X48.8273 Y18.7663 Z-3.0679
G1 X48.6029 Y19.0276 Z-3.1286
G1 X48.4358 Y19.3288 Z-3.1894
G1 X48.3327 Y19.6573 Z-3.2501
G1 X48.2978 Y20.0001 Z-3.3108
G1 X48.3326 Y20.3425 Z-3.3715
G1 X48.4358 Y20.6713 Z-3.4323
G1 X48.6029 Y20.9724 Z-3.4930
G1 X48.8273 Y21.2338 Z-3.5537
G1 X49.0996 Y21.4445 Z-3.6144
G1 X49.4088 Y21.5962 Z-3.6752
G1 X49.7423 Y21.6825 Z-3.7359
G1 X50.0862 Y21.7000 Z-3.7966
G1 X50.4266 Y21.6478 Z-3.8574
G1 X50.7496 Y21.5283 Z-3.9181
G1 X51.0419 Y21.3460 Z-3.9788
G1 X51.2915 Y21.1088 Z-4.0100
G1 X51.4883 Y20.8261 F640
G1 X51.6241 Y20.5096
G1 X51.6934 Y20.1722
G1 Y19.8278
G1 X51.6241 Y19.4904
G1 X51.4883 Y19.1740
G1 X51.2915 Y18.8913
G1 X51.0419 Y18.6540
G1 X50.7496 Y18.4718
G1 X50.4266 Y18.3522
G1 X50.0862 Y18.3000
G1 X49.7423 Y18.3175
G1 X49.4088 Y18.4038
G1 X49.0996 Y18.5555
G1 X48.8273 Y18.7663
G1 X48.6029 Y19.0276
G1 X48.4358 Y19.3288
G1 X48.3327 Y19.6573
G1 X48.2978 Y20.0001
G1 X48.3326 Y20.3425
G1 X48.4358 Y20.6713
G1 X48.6029 Y20.9724
G1 X48.8273 Y21.2338
G1 X49.0996 Y21.4445
G1 X49.4088 Y21.5962
G1 X49.7423 Y21.6825
G1 X50.0862 Y21.7000
G1 X50.4266 Y21.6478
G1 X50.7496 Y21.5283
G1 X51.0419 Y21.3460
G1 X51.2915 Y21.1088
G00 Z4.9900
G00 X50.0862 Y11.7000
G1 Z0.0900 F300
G1 X50.4267 Y11.6478 Z0.0293
G1 X50.7496 Y11.5282 Z-0.0315
G1 X51.0419 Y11.3460 Z-0.0922
G1 X51.2915 Y11.1088 Z-0.1529
G1 X51.4883 Y10.8261 Z-0.2136
G1 X51.6241 Y10.5096 Z-0.2744
G1 X51.6934 Y10.1722 Z-0.3351
G1 Y9.8278 Z-0.3958
G1 X51.6241 Y9.4904 Z-0.4566
G1 X51.4883 Y9.1740 Z-0.5173
G1 X51.2915 Y8.8913 Z-0.5780
G1 X51.0419 Y8.6540 Z-0.6387
G1 X50.7496 Y8.4718 Z-0.6995
G1 X50.4266 Y8.3522 Z-0.7602
G1 X50.0862 Y8.3000 Z-0.8209
G1 X49.7422 Y8.3175 Z-0.8817
G1 X49.4088 Y8.4038 Z-0.9424
G1 X49.0996 Y8.5555 Z-1.0031
G1 X48.8273 Y8.7663 Z-1.0638
G1 X48.6029 Y9.0276 Z-1.1246
G1 X48.4358 Y9.3288 Z-1.1853
G1 X48.3327 Y9.6573 Z-1.2460
G1 X48.2978 Y10.0 Z-1.3068
G1 X48.3327 Y10.3427 Z-1.3675
G1 X48.4358 Y10.6713 Z-1.4282
G1 X48.6029 Y10.9724 Z-1.4889
G1 X48.8273 Y11.2337 Z-1.5497
G1 X49.0996 Y11.4445 Z-1.6104
G1 X49.4088 Y11.5962 Z-1.6711
G1 X49.7423 Y11.6825 Z-1.7319
G1 X50.0862 Y11.7000 Z-1.7926
G1 X50.4267 Y11.6478 Z-1.8533
G1 X50.7496 Y11.5282 Z-1.9140
G1 X51.0419 Y11.3460 Z-1.9748
G1 X51.2915 Y11.1088 Z-2.0355
G1 X51.4883 Y10.8261 Z-2.0962
G1 X51.6241 Y10.5096 Z-2.1570
G1 X51.6934 Y10.1722 Z-2.2177
G1 Y9.8278 Z-2.2784
G1 X51.6241 Y9.4904 Z-2.3391
G1 X51.4883 Y9.1740 Z-2.3999
G1 X51.2915 Y8.8913 Z-2.4606
G1 X51.0419 Y8.6540 Z-2.5213
G1 X50.7496 Y8.4718 Z-2.5821
G1 X50.4266 Y8.3522 Z-2.6428
G1 X50.0862 Y8.3000 Z-2.7035
G1 X49.7422 Y8.3175 Z-2.7642
G1 X49.4088 Y8.4038 Z-2.8250
G1 X49.0996 Y8.5555 Z-2.8857
G1 X48.8273 Y8.7663 Z-2.9464
G1 X48.6029 Y9.0276 Z-3.0072
G1 X48.4358 Y9.3288 Z-3.0679
G1 X48.3327 Y9.6573 Z-3.1286
G1 X48.2978 Y10.0 Z-3.1893
G1 X48.3327 Y10.3427 Z-3.2501
G1 X48.4358 Y10.6713 Z-3.3108
G1 X48.6029 Y10.9724 Z-3.3715
G1 X48.8273 Y11.2337 Z-3.4323
G1 X49.0996 Y11.4445 Z-3.4930
G1 X49.4088 Y11.5962 Z-3.5537
G1 X49.7423 Y11.6825 Z-3.6144
G1 X50.0862 Y11.7000 Z-3.6752
G1 X50.4267 Y11.6478 Z-3.7359
G1 X50.7496 Y11.5282 Z-3.7966
G1 X51.0419 Y11.3460 Z-3.8574
G1 X51.2915 Y11.1088 Z-3.9181
G1 X51.4883 Y10.8261 Z-3.9788
G1 X51.6241 Y10.5096 Z-4.0100
G1 X51.6934 Y10.1722 F640
G1 Y9.8278
G1 X51.6241 Y9.4904
G1 X51.4883 Y9.1740
G1 X51.2915 Y8.8913
G1 X51.0419 Y8.6540
G1 X50.7496 Y8.4718
G1 X50.4266 Y8.3522
G1 X50.0862 Y8.3000
G1 X49.7422 Y8.3175
G1 X49.4088 Y8.4038
G1 X49.0996 Y8.5555
G1 X48.8273 Y8.7663
G1 X48.6029 Y9.0276
G1 X48.4358 Y9.3288
G1 X48.3327 Y9.6573
G1 X48.2978 Y10.0
G1 X48.3327 Y10.3427
G1 X48.4358 Y10.6713
G1 X48.6029 Y10.9724
G1 X48.8273 Y11.2337
G1 X49.0996 Y11.4445
G1 X49.4088 Y11.5962
G1 X49.7423 Y11.6825
G1 X50.0862 Y11.7000
G1 X50.4267 Y11.6478
G1 X50.7496 Y11.5282
G1 X51.0419 Y11.3460
G1 X51.2915 Y11.1088
G1 X51.4883 Y10.8261
G1 X51.6241 Y10.5096
G1 X51.6934 Y10.1722 Z-4.0707 F300
G1 Y9.8278 Z-4.1315
G1 X51.6241 Y9.4904 Z-4.1922
G1 X51.4883 Y9.1740 Z-4.2529
G1 X51.2915 Y8.8913 Z-4.3136
G1 X51.0419 Y8.6540 Z-4.3744
G1 X50.7496 Y8.4718 Z-4.4351
G1 X50.4266 Y8.3522 Z-4.4958
G1 X50.0862 Y8.3000 Z-4.5566
G1 X49.7422 Y8.3175 Z-4.6173
G1 X49.4088 Y8.4038 Z-4.6780
G1 X49.0996 Y8.5555 Z-4.7387
G1 X48.8273 Y8.7663 Z-4.7995
G1 X48.6029 Y9.0276 Z-4.8602
G1 X48.4358 Y9.3288 Z-4.9209
G1 X48.3327 Y9.6573 Z-4.9817
G1 X48.2978 Y10.0 Z-5.0100
G1 X48.3327 Y10.3427 F640
G1 X48.4358 Y10.6713
G1 X48.6029 Y10.9724
G1 X48.8273 Y11.2337
G1 X49.0996 Y11.4445
G1 X49.4088 Y11.5962
G1 X49.7423 Y11.6825
G1 X50.0862 Y11.7000
G1 X50.4267 Y11.6478
G1 X50.7496 Y11.5282
G1 X51.0419 Y11.3460
G1 X51.2915 Y11.1088
G1 X51.4883 Y10.8261
G1 X51.6241 Y10.5096
G1 X51.6934 Y10.1722
G1 Y9.8278
G1 X51.6241 Y9.4904
G1 X51.4883 Y9.1740
G1 X51.2915 Y8.8913
G1 X51.0419 Y8.6540
G1 X50.7496 Y8.4718
G1 X50.4266 Y8.3522
G1 X50.0862 Y8.3000
G1 X49.7422 Y8.3175
G1 X49.4088 Y8.4038
G1 X49.0996 Y8.5555
G1 X48.8273 Y8.7663
G1 X48.6029 Y9.0276
G1 X48.4358 Y9.3288
G1 X48.3327 Y9.6573
G1 X48.2978 Y10.0
G00 Z4.9900
G00 X49.7423 Y18.3175
G1 Z0.0900 F300
G1 X49.4088 Y18.4038 Z0.0293
G1 X49.0996 Y18.5555 Z-0.0315
G1 X48.8273 Y18.7663 Z-0.0922
G1 X48.6029 Y19.0276 Z-0.1529
G1 X48.4358 Y19.3288 Z-0.2137
G1 X48.3327 Y19.6573 Z-0.2744
G1 X48.2978 Y20.0001 Z-0.3351
G1 X48.3326 Y20.3425 Z-0.3958
G1 X48.4358 Y20.6713 Z-0.4566
G1 X48.6029 Y20.9724 Z-0.5173
G1 X48.8273 Y21.2338 Z-0.5780
G1 X49.0996 Y21.4445 Z-0.6387
G1 X49.4088 Y21.5962 Z-0.6995
G1 X49.7423 Y21.6825 Z-0.7602
G1 X50.0862 Y21.7000 Z-0.8209
G1 X50.4266 Y21.6478 Z-0.8817
G1 X50.7496 Y21.5283 Z-0.9424
G1 X51.0419 Y21.3460 Z-1.0031
G1 X51.2915 Y21.1088 Z-1.0638
G1 X51.4883 Y20.8261 Z-1.1246
G1 X51.6241 Y20.5096 Z-1.1853
G1 X51.6934 Y20.1722 Z-1.2460
G1 Y19.8278 Z-1.3068
G1 X51.6241 Y19.4904 Z-1.3675
G1 X51.4883 Y19.1740 Z-1.4282
G1 X51.2915 Y18.8913 Z-1.4889
G1 X51.0419 Y18.6540 Z-1.5497
G1 X50.7496 Y18.4718 Z-1.6104
G1 X50.4266 Y18.3522 Z-1.6711
G1 X50.0862 Y18.3000 Z-1.7319
G1 X49.7423 Y18.3175 Z-1.7926
G1 X49.4088 Y18.4038 Z-1.8533
G1 X49.0996 Y18.5555 Z-1.9140
G1 X48.8273 Y18.7663 Z-1.9748
G1 X48.6029 Y19.0276 Z-2.0355
G1 X48.4358 Y19.3288 Z-2.0962
G1 X48.3327 Y19.6573 Z-2.1570
G1 X48.2978 Y20.0001 Z-2.2177
G1 X48.3326 Y20.3425 Z-2.2784
G1 X48.4358 Y20.6713 Z-2.3392
G1 X48.6029 Y20.9724 Z-2.3999
G1 X48.8273 Y21.2338 Z-2.4606
G1 X49.0996 Y21.4445 Z-2.5213
G1 X49.4088 Y21.5962 Z-2.5821
G1 X49.7423 Y21.6825 Z-2.6428
G1 X50.0862 Y21.7000 Z-2.7035
G1 X50.4266 Y21.6478 Z-2.7643
G1 X50.7496 Y21.5283 Z-2.8250
G1 X51.0419 Y21.3460 Z-2.8857
G1 X51.2915 Y21.1088 Z-2.9464
G1 X51.4883 Y20.8261 Z-3.0072
G1 X51.6241 Y20.5096 Z-3.0679
G1 X51.6934 Y20.1722 Z-3.1286
G1 Y19.8278 Z-3.1894
G1 X51.6241 Y19.4904 Z-3.2501
G1 X51.4883 Y19.1740 Z-3.3108
G1 X51.2915 Y18.8913 Z-3.3715
G1 X51.0419 Y18.6540 Z-3.4323
G1 X50.7496 Y18.4718 Z-3.4930
G1 X50.4266 Y18.3522 Z-3.5537
G1 X50.0862 Y18.3000 Z-3.6144
G1 X49.7423 Y18.3175 Z-3.6752
G1 X49.4088 Y18.4038 Z-3.7359
G1 X49.0996 Y18.5555 Z-3.7966
G1 X48.8273 Y18.7663 Z-3.8574
G1 X48.6029 Y19.0276 Z-3.9181
G1 X48.4358 Y19.3288 Z-3.9788
G1 X48.3327 Y19.6573 Z-4.0395
G1 X48.2978 Y20.0001 Z-4.1003
G1 X48.3326 Y20.3425 Z-4.1610
G1 X48.4358 Y20.6713 Z-4.2217
G1 X48.6029 Y20.9724 Z-4.2825
G1 X48.8273 Y21.2338 Z-4.3432
G1 X49.0996 Y21.4445 Z-4.4039
G1 X49.4088 Y21.5962 Z-4.4647
G1 X49.7423 Y21.6825 Z-4.5254
G1 X50.0862 Y21.7000 Z-4.5861
G1 X50.4266 Y21.6478 Z-4.6468
G1 X50.7496 Y21.5283 Z-4.7076
G1 X51.0419 Y21.3460 Z-4.7683
G1 X51.2915 Y21.1088 Z-4.8290
G1 X51.4883 Y20.8261 Z-4.8898
G1 X51.6241 Y20.5096 Z-4.9505
G1 X51.6934 Y20.1722 Z-5.0100
G1 Y19.8278 F640
G1 X51.6241 Y19.4904
G1 X51.4883 Y19.1740
G1 X51.2915 Y18.8913
G1 X51.0419 Y18.6540
G1 X50.7496 Y18.4718
G1 X50.4266 Y18.3522
G1 X50.0862 Y18.3000
G1 X49.7423 Y18.3175
G1 X49.4088 Y18.4038
G1 X49.0996 Y18.5555
G1 X48.8273 Y18.7663
G1 X48.6029 Y19.0276
G1 X48.4358 Y19.3288
G1 X48.3327 Y19.6573
G1 X48.2978 Y20.0001
G1 X48.3326 Y20.3425
G1 X48.4358 Y20.6713
G1 X48.6029 Y20.9724
G1 X48.8273 Y21.2338
G1 X49.0996 Y21.4445
G1 X49.4088 Y21.5962
G1 X49.7423 Y21.6825
G1 X50.0862 Y21.7000
G1 X50.4266 Y21.6478
G1 X50.7496 Y21.5283
G1 X51.0419 Y21.3460
G1 X51.2915 Y21.1088
G1 X51.4883 Y20.8261
G1 X51.6241 Y20.5096
G1 X51.6934 Y20.1722
G00 Z4.9900
G00 X55.7938 Y26.1610
G1 Z0.0900 F300
G1 X47.5792 Z-1.3585
G1 X47.5938 Y26.6673 Z-1.4478
G1 X47.5289 Y28.0198 Z-1.6865
G1 X47.3601 Y29.3632 Z-1.9253
G1 X47.0885 Y30.6899 Z-2.1640
G1 X46.7157 Y31.9916 Z-2.4028
G1 X46.2439 Y33.2607 Z-2.6415
G1 X45.6758 Y34.4899 Z-2.8803
G1 X45.0150 Y35.6718 Z-3.1191
G1 X44.2651 Y36.7993 Z-3.3578
G1 X43.4309 Y37.8659 Z-3.5966
G1 X42.5171 Y38.8650 Z-3.8353
G1 X41.5290 Y39.7911 Z-4.0741
G1 X40.7937 Y40.3809 Z-4.2403
G1 X40.7938 Y69.0260 Z-5.0100
G1 X40.7373 Y69.8870 F640
G1 X40.5639 Y70.7588
G1 X40.2782 Y71.6005
G1 X39.8850 Y72.3977
G1 X39.3912 Y73.1368
G1 X38.8051 Y73.8051
G1 X38.1368 Y74.3912
G1 X37.3977 Y74.8850
G1 X36.6005 Y75.2782
G1 X35.7588 Y75.5639
G1 X34.8870 Y75.7373
G1 X34.0260 Y75.7938
G1 X10.9740
G1 X10.1130 Y75.7373
G1 X9.2412 Y75.5639
G1 X8.3995 Y75.2782
G1 X7.6023 Y74.8850
G1 X6.8632 Y74.3912
G1 X6.1949 Y73.8051
G1 X5.6088 Y73.1368
G1 X5.1150 Y72.3977
G1 X4.7218 Y71.6005
G1 X4.4361 Y70.7588
G1 X4.2627 Y69.8870
G1 X4.2063 Y69.0260
G1 Y4.2062
G1 X55.7938
G1 Y26.1610
G1 X47.5792
G1 X47.5938 Y26.6673
G1 X47.5289 Y28.0198
G1 X47.3601 Y29.3632
G1 X47.0885 Y30.6899
G1 X46.7157 Y31.9916
G1 X46.2439 Y33.2607
G1 X45.6758 Y34.4899
G1 X45.0150 Y35.6718
G1 X44.2651 Y36.7993
G1 X43.4309 Y37.8659
G1 X42.5171 Y38.8650
G1 X41.5290 Y39.7911
G1 X40.7937 Y40.3809
G1 X40.7938 Y69.0260
G00 Z4.9900
G00 X33.7300 Y68.7989
G1 Z0.0900 F300
G1 Y44.3213 Z-4.2261
G1 X33.6864 Y43.7396 Z-4.3289
G1 X33.5632 Y43.1998 Z-4.4265
G1 X33.3609 Y42.6845 Z-4.5242
G1 X33.0841 Y42.2051 Z-4.6218
G1 X32.7389 Y41.7722 Z-4.7194
G1 X32.3331 Y41.3957 Z-4.8170
G1 X31.8757 Y41.0839 Z-4.9146
G1 X31.3769 Y40.8436 Z-5.0100
G1 X30.8479 Y40.6805 F640
G1 X30.3005 Y40.5980
G1 X29.7469
G1 X29.1995 Y40.6805
G1 X28.6705 Y40.8436
G1 X28.1717 Y41.0839
G1 X27.7143 Y41.3957
G1 X27.3085 Y41.7722
G1 X26.9633 Y42.2051
G1 X26.6865 Y42.6845
G1 X26.4843 Y43.1998
G1 X26.3610 Y43.7396
G1 X26.3175 Y44.3213
G1 Y68.7989
G1 X26.3610 Y69.3806
G1 X26.4843 Y69.9204
G1 X26.6865 Y70.4356
G1 X26.9633 Y70.9151
G1 X27.3085 Y71.3479
G1 X27.7143 Y71.7245
G1 X28.1716 Y72.0363
G1 X28.6705 Y72.2765
G1 X29.1995 Y72.4397
G1 X29.7469 Y72.5222
G1 X30.3005
G1 X30.8479 Y72.4397
G1 X31.3769 Y72.2765
G1 X31.8757 Y72.0363
G1 X32.3331 Y71.7245
G1 X32.7389 Y71.3479
G1 X33.0841 Y70.9151
G1 X33.3609 Y70.4357
G1 X33.5632 Y69.9203
G1 X33.6864 Y69.3806
G1 X33.7300 Y68.7989
G1 Y44.3213
G1 X33.6864 Y43.7396
G1 X33.5632 Y43.1998
G1 X33.3609 Y42.6845
G1 X33.0841 Y42.2051
G1 X32.7389 Y41.7722
G1 X32.3331 Y41.3957
G1 X31.8757 Y41.0839
G1 X31.3769 Y40.8436
G00 Z4.9900
G00 X30.7755 Y37.1772
G1 Z0.0900 F300
G1 X31.8023 Y37.0525 Z-0.0924
G1 X32.8123 Y36.8293 Z-0.2748
G1 X33.7962 Y36.5097 Z-0.4572
G1 X34.7445 Y36.0965 Z-0.6396
G1 X35.6486 Y35.5938 Z-0.8220
G1 X36.4999 Y35.0062 Z-1.0044
G1 X37.2904 Y34.3393 Z-1.1868
G1 X38.0131 Y33.5989 Z-1.3692
G1 X38.6608 Y32.7924 Z-1.5516
G1 X39.2276 Y31.9272 Z-1.7340
G1 X39.7083 Y31.0113 Z-1.9163
G1 X40.0985 Y30.0532 Z-2.0988
G1 X40.3943 Y29.0620 Z-2.2811
G1 X40.5930 Y28.0468 Z-2.4635
G1 X40.6928 Y27.0173 Z-2.6459
G1 Y25.9827 Z-2.8283
G1 X40.5930 Y24.9532 Z-3.0107
G1 X40.3943 Y23.9381 Z-3.1931
G1 X40.0985 Y22.9469 Z-3.3755
G1 X39.7083 Y21.9887 Z-3.5579
G1 X39.2277 Y21.0729 Z-3.7403
G1 X38.6608 Y20.2076 Z-3.9227
G1 X38.0131 Y19.4011 Z-4.1051
G1 X37.2904 Y18.6608 Z-4.2875
G1 X36.4998 Y17.9938 Z-4.4699
G1 X35.6486 Y17.4062 Z-4.6523
G1 X34.7445 Y16.9035 Z-4.8347
G1 X33.7961 Y16.4904 Z-5.0100
G1 X32.8123 Y16.1707 F640
G1 X31.8023 Y15.9475
G1 X30.7755 Y15.8228
G1 X29.7413 Y15.7978
G1 X28.7096 Y15.8727
G1 X27.6900 Y16.0469
G1 X26.6918 Y16.3187
G1 X25.7246 Y16.6855
G1 X24.7975 Y17.1439
G1 X23.9187 Y17.6897
G1 X23.0968 Y18.3178
G1 X22.3393 Y19.0222
G1 X21.6534 Y19.7964
G1 X21.0453 Y20.6334
G1 X20.5209 Y21.5250
G1 X20.0850 Y22.4631
G1 X19.7417 Y23.4389
G1 X19.4941 Y24.4432
G1 X19.3447 Y25.4668
G1 X19.2947 Y26.5000
G1 X19.3447 Y27.5332
G1 X19.4941 Y28.5569
G1 X19.7417 Y29.5611
G1 X20.0850 Y30.5370
G1 X20.5209 Y31.4750
G1 X21.0454 Y32.3667
G1 X21.6533 Y33.2035
G1 X22.3394 Y33.9778
G1 X23.0968 Y34.6823
G1 X23.9187 Y35.3103
G1 X24.7974 Y35.8561
G1 X25.7246 Y36.3145
G1 X26.6919 Y36.6814
G1 X27.6900 Y36.9531
G1 X28.7097 Y37.1273
G1 X29.7412 Y37.2022
G1 X30.7755 Y37.1772
G1 X31.8023 Y37.0525
G1 X32.8123 Y36.8293
G1 X33.7962 Y36.5097
G1 X34.7445 Y36.0965
G1 X35.6486 Y35.5938
G1 X36.4999 Y35.0062
G1 X37.2904 Y34.3393
G1 X38.0131 Y33.5989
G1 X38.6608 Y32.7924
G1 X39.2276 Y31.9272
G1 X39.7083 Y31.0113
G1 X40.0985 Y30.0532
G1 X40.3943 Y29.0620
G1 X40.5930 Y28.0468
G1 X40.6928 Y27.0173
G1 Y25.9827
G1 X40.5930 Y24.9532
G1 X40.3943 Y23.9381
G1 X40.0985 Y22.9469
G1 X39.7083 Y21.9887
G1 X39.2277 Y21.0729
G1 X38.6608 Y20.2076
G1 X38.0131 Y19.4011
G1 X37.2904 Y18.6608
G1 X36.4998 Y17.9938
G1 X35.6486 Y17.4062
G1 X34.7445 Y16.9035
G1 X33.7961 Y16.4904
G00 Z4.9900
G00 X11.6934 Y19.8279
G1 Z0.0900 F300
G1 X11.6241 Y19.4904 Z0.0293
G1 X11.4883 Y19.1740 Z-0.0315
G1 X11.2915 Y18.8913 Z-0.0922
G1 X11.0419 Y18.6540 Z-0.1529
G1 X10.7496 Y18.4718 Z-0.2137
G1 X10.4266 Y18.3522 Z-0.2744
G1 X10.0862 Y18.3000 Z-0.3351
G1 X9.7422 Y18.3175 Z-0.3958
G1 X9.4089 Y18.4038 Z-0.4566
G1 X9.0996 Y18.5555 Z-0.5173
G1 X8.8273 Y18.7663 Z-0.5780
G1 X8.6030 Y19.0276 Z-0.6387
G1 X8.4358 Y19.3288 Z-0.6995
G1 X8.3327 Y19.6574 Z-0.7602
G1 X8.2979 Y20.0 Z-0.8209
G1 X8.3327 Y20.3427 Z-0.8817
G1 X8.4358 Y20.6712 Z-0.9424
G1 X8.6030 Y20.9724 Z-1.0031
G1 X8.8273 Y21.2337 Z-1.0639
G1 X9.0996 Y21.4445 Z-1.1246
G1 X9.4088 Y21.5962 Z-1.1853
G1 X9.7423 Y21.6825 Z-1.2460
G1 X10.0863 Y21.7000 Z-1.3068
G1 X10.4266 Y21.6478 Z-1.3675
G1 X10.7497 Y21.5282 Z-1.4282
G1 X11.0419 Y21.3460 Z-1.4890
G1 X11.2916 Y21.1088 Z-1.5497
G1 X11.4883 Y20.8261 Z-1.6104
G1 X11.6241 Y20.5096 Z-1.6711
G1 X11.6934 Y20.1722 Z-1.7319
G1 Y19.8279 Z-1.7926
G1 X11.6241 Y19.4904 Z-1.8533
G1 X11.4883 Y19.1740 Z-1.9141
G1 X11.2915 Y18.8913 Z-1.9748
G1 X11.0419 Y18.6540 Z-2.0355
G1 X10.7496 Y18.4718 Z-2.0962
G1 X10.4266 Y18.3522 Z-2.1570
G1 X10.0862 Y18.3000 Z-2.2177
G1 X9.7422 Y18.3175 Z-2.2784
G1 X9.4089 Y18.4038 Z-2.3392
G1 X9.0996 Y18.5555 Z-2.3999
G1 X8.8273 Y18.7663 Z-2.4606
G1 X8.6030 Y19.0276 Z-2.5213
G1 X8.4358 Y19.3288 Z-2.5821
G1 X8.3327 Y19.6574 Z-2.6428
G1 X8.2979 Y20.0 Z-2.7035
G1 X8.3327 Y20.3427 Z-2.7643
G1 X8.4358 Y20.6712 Z-2.8250
G1 X8.6030 Y20.9724 Z-2.8857
G1 X8.8273 Y21.2337 Z-2.9464
G1 X9.0996 Y21.4445 Z-3.0072
G1 X9.4088 Y21.5962 Z-3.0679
G1 X9.7423 Y21.6825 Z-3.1286
G1 X10.0863 Y21.7000 Z-3.1894
G1 X10.4266 Y21.6478 Z-3.2501
G1 X10.7497 Y21.5282 Z-3.3108
G1 X11.0419 Y21.3460 Z-3.3715
G1 X11.2916 Y21.1088 Z-3.4323
G1 X11.4883 Y20.8261 Z-3.4930
G1 X11.6241 Y20.5096 Z-3.5537
G1 X11.6934 Y20.1722 Z-3.6145
G1 Y19.8279 Z-3.6752
G1 X11.6241 Y19.4904 Z-3.7359
G1 X11.4883 Y19.1740 Z-3.7966
G1 X11.2915 Y18.8913 Z-3.8574
G1 X11.0419 Y18.6540 Z-3.9181
G1 X10.7496 Y18.4718 Z-3.9788
G1 X10.4266 Y18.3522 Z-4.0396
G1 X10.0862 Y18.3000 Z-4.1003
G1 X9.7422 Y18.3175 Z-4.1610
G1 X9.4089 Y18.4038 Z-4.2217
G1 X9.0996 Y18.5555 Z-4.2825
G1 X8.8273 Y18.7663 Z-4.3432
G1 X8.6030 Y19.0276 Z-4.4039
G1 X8.4358 Y19.3288 Z-4.4647
G1 X8.3327 Y19.6574 Z-4.5254
G1 X8.2979 Y20.0 Z-4.5861
G1 X8.3327 Y20.3427 Z-4.6469
G1 X8.4358 Y20.6712 Z-4.7076
G1 X8.6030 Y20.9724 Z-4.7683
G1 X8.8273 Y21.2337 Z-4.8290
G1 X9.0996 Y21.4445 Z-4.8898
G1 X9.4088 Y21.5962 Z-4.9505
G1 X9.7423 Y21.6825 Z-5.0100
G1 X10.0863 Y21.7000 F640
G1 X10.4266 Y21.6478
G1 X10.7497 Y21.5282
G1 X11.0419 Y21.3460
G1 X11.2916 Y21.1088
G1 X11.4883 Y20.8261
G1 X11.6241 Y20.5096
G1 X11.6934 Y20.1722
G1 Y19.8279
G1 X11.6241 Y19.4904
G1 X11.4883 Y19.1740
G1 X11.2915 Y18.8913
G1 X11.0419 Y18.6540
G1 X10.7496 Y18.4718
G1 X10.4266 Y18.3522
G1 X10.0862 Y18.3000
G1 X9.7422 Y18.3175
G1 X9.4089 Y18.4038
G1 X9.0996 Y18.5555
G1 X8.8273 Y18.7663
G1 X8.6030 Y19.0276
G1 X8.4358 Y19.3288
G1 X8.3327 Y19.6574
G1 X8.2979 Y20.0
G1 X8.3327 Y20.3427
G1 X8.4358 Y20.6712
G1 X8.6030 Y20.9724
G1 X8.8273 Y21.2337
G1 X9.0996 Y21.4445
G1 X9.4088 Y21.5962
G1 X9.7423 Y21.6825
G00 Z4.9900
G00 X10.0862 Y11.7000
G1 Z0.0900 F300
G1 X10.4266 Y11.6478 Z0.0293
G1 X10.7497 Y11.5282 Z-0.0315
G1 X11.0419 Y11.3461 Z-0.0922
G1 X11.2916 Y11.1087 Z-0.1529
G1 X11.4883 Y10.8261 Z-0.2136
G1 X11.6241 Y10.5096 Z-0.2744
G1 X11.6934 Y10.1722 Z-0.3351
G1 Y9.8279 Z-0.3958
G1 X11.6241 Y9.4904 Z-0.4566
G1 X11.4883 Y9.1740 Z-0.5173
G1 X11.2915 Y8.8913 Z-0.5780
G1 X11.0419 Y8.6540 Z-0.6387
G1 X10.7496 Y8.4718 Z-0.6995
G1 X10.4267 Y8.3522 Z-0.7602
G1 X10.0862 Y8.3000 Z-0.8209
G1 X9.7422 Y8.3175 Z-0.8817
G1 X9.4089 Y8.4038 Z-0.9424
G1 X9.0996 Y8.5555 Z-1.0031
G1 X8.8273 Y8.7663 Z-1.0638
G1 X8.6030 Y9.0276 Z-1.1246
G1 X8.4358 Y9.3288 Z-1.1853
G1 X8.3327 Y9.6574 Z-1.2460
G1 X8.2979 Y10.0 Z-1.3068
G1 X8.3327 Y10.3427 Z-1.3675
G1 X8.4358 Y10.6713 Z-1.4282
G1 X8.6029 Y10.9724 Z-1.4889
G1 X8.8273 Y11.2337 Z-1.5497
G1 X9.0996 Y11.4445 Z-1.6104
G1 X9.4088 Y11.5962 Z-1.6711
G1 X9.7423 Y11.6825 Z-1.7319
G1 X10.0862 Y11.7000 Z-1.7926
G1 X10.4266 Y11.6478 Z-1.8533
G1 X10.7497 Y11.5282 Z-1.9140
G1 X11.0419 Y11.3461 Z-1.9748
G1 X11.2916 Y11.1087 Z-2.0355
G1 X11.4883 Y10.8261 Z-2.0962
G1 X11.6241 Y10.5096 Z-2.1569
G1 X11.6934 Y10.1722 Z-2.2177
G1 Y9.8279 Z-2.2784
G1 X11.6241 Y9.4904 Z-2.3391
G1 X11.4883 Y9.1740 Z-2.3999
G1 X11.2915 Y8.8913 Z-2.4606
G1 X11.0419 Y8.6540 Z-2.5213
G1 X10.7496 Y8.4718 Z-2.5821
G1 X10.4267 Y8.3522 Z-2.6428
G1 X10.0862 Y8.3000 Z-2.7035
G1 X9.7422 Y8.3175 Z-2.7642
G1 X9.4089 Y8.4038 Z-2.8250
G1 X9.0996 Y8.5555 Z-2.8857
G1 X8.8273 Y8.7663 Z-2.9464
G1 X8.6030 Y9.0276 Z-3.0072
G1 X8.4358 Y9.3288 Z-3.0679
G1 X8.3327 Y9.6574 Z-3.1286
G1 X8.2979 Y10.0 Z-3.1893
G1 X8.3327 Y10.3427 Z-3.2501
G1 X8.4358 Y10.6713 Z-3.3108
G1 X8.6029 Y10.9724 Z-3.3715
G1 X8.8273 Y11.2337 Z-3.4323
G1 X9.0996 Y11.4445 Z-3.4930
G1 X9.4088 Y11.5962 Z-3.5537
G1 X9.7423 Y11.6825 Z-3.6144
G1 X10.0862 Y11.7000 Z-3.6752
G1 X10.4266 Y11.6478 Z-3.7359
G1 X10.7497 Y11.5282 Z-3.7966
G1 X11.0419 Y11.3461 Z-3.8574
G1 X11.2916 Y11.1087 Z-3.9181
G1 X11.4883 Y10.8261 Z-3.9788
G1 X11.6241 Y10.5096 Z-4.0395
G1 X11.6934 Y10.1722 Z-4.1003
G1 Y9.8279 Z-4.1610
G1 X11.6241 Y9.4904 Z-4.2217
G1 X11.4883 Y9.1740 Z-4.2825
G1 X11.2915 Y8.8913 Z-4.3432
G1 X11.0419 Y8.6540 Z-4.4039
G1 X10.7496 Y8.4718 Z-4.4646
G1 X10.4267 Y8.3522 Z-4.5254
G1 X10.0862 Y8.3000 Z-4.5861
G1 X9.7422 Y8.3175 Z-4.6468
G1 X9.4089 Y8.4038 Z-4.7076
G1 X9.0996 Y8.5555 Z-4.7683
G1 X8.8273 Y8.7663 Z-4.8290
G1 X8.6030 Y9.0276 Z-4.8897
G1 X8.4358 Y9.3288 Z-4.9505
G1 X8.3327 Y9.6574 Z-5.0100
G1 X8.2979 Y10.0 F640
G1 X8.3327 Y10.3427
G1 X8.4358 Y10.6713
G1 X8.6029 Y10.9724
G1 X8.8273 Y11.2337
G1 X9.0996 Y11.4445
G1 X9.4088 Y11.5962
G1 X9.7423 Y11.6825
G1 X10.0862 Y11.7000
G1 X10.4266 Y11.6478
G1 X10.7497 Y11.5282
G1 X11.0419 Y11.3461
G1 X11.2916 Y11.1087
G1 X11.4883 Y10.8261
G1 X11.6241 Y10.5096
G1 X11.6934 Y10.1722
G1 Y9.8279
G1 X11.6241 Y9.4904
G1 X11.4883 Y9.1740
G1 X11.2915 Y8.8913
G1 X11.0419 Y8.6540
G1 X10.7496 Y8.4718
G1 X10.4267 Y8.3522
G1 X10.0862 Y8.3000
G1 X9.7422 Y8.3175
G1 X9.4089 Y8.4038
G1 X9.0996 Y8.5555
G1 X8.8273 Y8.7663
G1 X8.6030 Y9.0276
G1 X8.4358 Y9.3288
G1 X8.3327 Y9.6574
G00 Z4.9900
G00 X10.2860 Y66.9002
G1 Z0.0900 F300
G1 X10.1050 Y66.9240 Z0.0578
G1 X9.9363 Y66.9939 Z0.0256
G1 X9.7915 Y67.1050 Z-0.0066
G1 X9.6803 Y67.2499 Z-0.0388
G1 X9.6104 Y67.4186 Z-0.0710
G1 X9.5866 Y67.5996 Z-0.1032
G1 X9.6104 Y67.7806 Z-0.1354
G1 X9.6803 Y67.9493 Z-0.1676
G1 X9.7914 Y68.0941 Z-0.1997
G1 X9.9363 Y68.2053 Z-0.2319
G1 X10.1050 Y68.2752 Z-0.2641
G1 X10.2860 Y68.2990 Z-0.2963
G1 X10.4670 Y68.2752 Z-0.3285
G1 X10.6357 Y68.2053 Z-0.3607
G1 X10.7806 Y68.0941 Z-0.3929
G1 X10.8917 Y67.9493 Z-0.4251
G1 X10.9616 Y67.7806 Z-0.4573
G1 X10.9854 Y67.5996 Z-0.4895
G1 X10.9616 Y67.4186 Z-0.5217
G1 X10.8917 Y67.2499 Z-0.5539
G1 X10.7806 Y67.1051 Z-0.5861
G1 X10.6357 Y66.9939 Z-0.6183
G1 X10.4670 Y66.9240 Z-0.6505
G1 X10.2860 Y66.9002 Z-0.6827
G1 X10.1050 Y66.9240 Z-0.7148
G1 X9.9363 Y66.9939 Z-0.7471
G1 X9.7915 Y67.1050 Z-0.7792
G1 X9.6803 Y67.2499 Z-0.8114
G1 X9.6104 Y67.4186 Z-0.8436
G1 X9.5866 Y67.5996 Z-0.8758
G1 X9.6104 Y67.7806 Z-0.9080
G1 X9.6803 Y67.9493 Z-0.9402
G1 X9.7914 Y68.0941 Z-0.9724
G1 X9.9363 Y68.2053 Z-1.0046
G1 X10.1050 Y68.2752 Z-1.0368
G1 X10.2860 Y68.2990 Z-1.0690
G1 X10.4670 Y68.2752 Z-1.1012
G1 X10.6357 Y68.2053 Z-1.1334
G1 X10.7806 Y68.0941 Z-1.1656
G1 X10.8917 Y67.9493 Z-1.1978
G1 X10.9616 Y67.7806 Z-1.2300
G1 X10.9854 Y67.5996 Z-1.2621
G1 X10.9616 Y67.4186 Z-1.2943
G1 X10.8917 Y67.2499 Z-1.3265
G1 X10.7806 Y67.1051 Z-1.3587
G1 X10.6357 Y66.9939 Z-1.3909
G1 X10.4670 Y66.9240 Z-1.4231
G1 X10.2860 Y66.9002 Z-1.4553
G1 X10.1050 Y66.9240 Z-1.4875
G1 X9.9363 Y66.9939 Z-1.5197
G1 X9.7915 Y67.1050 Z-1.5519
G1 X9.6803 Y67.2499 Z-1.5841
G1 X9.6104 Y67.4186 Z-1.6163
G1 X9.5866 Y67.5996 Z-1.6485
G1 X9.6104 Y67.7806 Z-1.6807
G1 X9.6803 Y67.9493 Z-1.7129
G1 X9.7914 Y68.0941 Z-1.7451
G1 X9.9363 Y68.2053 Z-1.7772
G1 X10.1050 Y68.2752 Z-1.8094
G1 X10.2860 Y68.2990 Z-1.8416
G1 X10.4670 Y68.2752 Z-1.8738
G1 X10.6357 Y68.2053 Z-1.9060
G1 X10.7806 Y68.0941 Z-1.9382
G1 X10.8917 Y67.9493 Z-1.9704
G1 X10.9616 Y67.7806 Z-2.0026
G1 X10.9854 Y67.5996 Z-2.0348
G1 X10.9616 Y67.4186 Z-2.0670
G1 X10.8917 Y67.2499 Z-2.0992
G1 X10.7806 Y67.1051 Z-2.1314
G1 X10.6357 Y66.9939 Z-2.1636
G1 X10.4670 Y66.9240 Z-2.1958
G1 X10.2860 Y66.9002 Z-2.2280
G1 X10.1050 Y66.9240 Z-2.2602
G1 X9.9363 Y66.9939 Z-2.2924
G1 X9.7915 Y67.1050 Z-2.3245
G1 X9.6803 Y67.2499 Z-2.3567
G1 X9.6104 Y67.4186 Z-2.3889
G1 X9.5866 Y67.5996 Z-2.4211
G1 X9.6104 Y67.7806 Z-2.4533
G1 X9.6803 Y67.9493 Z-2.4855
G1 X9.7914 Y68.0941 Z-2.5177
G1 X9.9363 Y68.2053 Z-2.5499
G1 X10.1050 Y68.2752 Z-2.5821
G1 X10.2860 Y68.2990 Z-2.6143
G1 X10.4670 Y68.2752 Z-2.6465
G1 X10.6357 Y68.2053 Z-2.6787
G1 X10.7806 Y68.0941 Z-2.7109
G1 X10.8917 Y67.9493 Z-2.7431
G1 X10.9616 Y67.7806 Z-2.7753
G1 X10.9854 Y67.5996 Z-2.8075
G1 X10.9616 Y67.4186 Z-2.8396
G1 X10.8917 Y67.2499 Z-2.8718
G1 X10.7806 Y67.1051 Z-2.9040
G1 X10.6357 Y66.9939 Z-2.9362
G1 X10.4670 Y66.9240 Z-2.9684
G1 X10.2860 Y66.9002 Z-3.0006
G1 X10.1050 Y66.9240 Z-3.0328
G1 X9.9363 Y66.9939 Z-3.0650
G1 X9.7915 Y67.1050 Z-3.0972
G1 X9.6803 Y67.2499 Z-3.1294
G1 X9.6104 Y67.4186 Z-3.1616
G1 X9.5866 Y67.5996 Z-3.1938
G1 X9.6104 Y67.7806 Z-3.2260
G1 X9.6803 Y67.9493 Z-3.2582
G1 X9.7914 Y68.0941 Z-3.2904
G1 X9.9363 Y68.2053 Z-3.3226
G1 X10.1050 Y68.2752 Z-3.3548
G1 X10.2860 Y68.2990 Z-3.3869
G1 X10.4670 Y68.2752 Z-3.4191
G1 X10.6357 Y68.2053 Z-3.4513
G1 X10.7806 Y68.0941 Z-3.4835
G1 X10.8917 Y67.9493 Z-3.5157
G1 X10.9616 Y67.7806 Z-3.5479
G1 X10.9854 Y67.5996 Z-3.5801
G1 X10.9616 Y67.4186 Z-3.6123
G1 X10.8917 Y67.2499 Z-3.6445
G1 X10.7806 Y67.1051 Z-3.6767
G1 X10.6357 Y66.9939 Z-3.7089
G1 X10.4670 Y66.9240 Z-3.7411
G1 X10.2860 Y66.9002 Z-3.7733
G1 X10.1050 Y66.9240 Z-3.8055
G1 X9.9363 Y66.9939 Z-3.8377
G1 X9.7915 Y67.1050 Z-3.8699
G1 X9.6803 Y67.2499 Z-3.9020
G1 X9.6104 Y67.4186 Z-3.9342
G1 X9.5866 Y67.5996 Z-3.9664
G1 X9.6104 Y67.7806 Z-3.9986
G1 X9.6803 Y67.9493 Z-4.0308
G1 X9.7914 Y68.0941 Z-4.0630
G1 X9.9363 Y68.2053 Z-4.0952
G1 X10.1050 Y68.2752 Z-4.1274
G1 X10.2860 Y68.2990 Z-4.1596
G1 X10.4670 Y68.2752 Z-4.1918
G1 X10.6357 Y68.2053 Z-4.2240
G1 X10.7806 Y68.0941 Z-4.2562
G1 X10.8917 Y67.9493 Z-4.2884
G1 X10.9616 Y67.7806 Z-4.3206
G1 X10.9854 Y67.5996 Z-4.3528
G1 X10.9616 Y67.4186 Z-4.3849
G1 X10.8917 Y67.2499 Z-4.4172
G1 X10.7806 Y67.1051 Z-4.4493
G1 X10.6357 Y66.9939 Z-4.4815
G1 X10.4670 Y66.9240 Z-4.5137
G1 X10.2860 Y66.9002 Z-4.5459
G1 X10.1050 Y66.9240 Z-4.5781
G1 X9.9363 Y66.9939 Z-4.6103
G1 X9.7915 Y67.1050 Z-4.6425
G1 X9.6803 Y67.2499 Z-4.6747
G1 X9.6104 Y67.4186 Z-4.7069
G1 X9.5866 Y67.5996 Z-4.7391
G1 X9.6104 Y67.7806 Z-4.7713
G1 X9.6803 Y67.9493 Z-4.8035
G1 X9.7914 Y68.0941 Z-4.8357
G1 X9.9363 Y68.2053 Z-4.8679
G1 X10.1050 Y68.2752 Z-4.9001
G1 X10.2860 Y68.2990 Z-4.9323
G1 X10.4670 Y68.2752 Z-4.9644
G1 X10.6357 Y68.2053 Z-4.9966
G1 X10.7806 Y68.0941 Z-5.0100
G1 X10.8917 Y67.9493 F640
G1 X10.9616 Y67.7806
G1 X10.9854 Y67.5996
G1 X10.9616 Y67.4186
G1 X10.8917 Y67.2499
G1 X10.7806 Y67.1051
G1 X10.6357 Y66.9939
G1 X10.4670 Y66.9240
G1 X10.2860 Y66.9002
G1 X10.1050 Y66.9240
G1 X9.9363 Y66.9939
G1 X9.7915 Y67.1050
G1 X9.6803 Y67.2499
G1 X9.6104 Y67.4186
G1 X9.5866 Y67.5996
G1 X9.6104 Y67.7806
G1 X9.6803 Y67.9493
G1 X9.7914 Y68.0941
G1 X9.9363 Y68.2053
G1 X10.1050 Y68.2752
G1 X10.2860 Y68.2990
G1 X10.4670 Y68.2752
G1 X10.6357 Y68.2053
G1 X10.7806 Y68.0941
G00 Z5.000000

(Footer)
M5
G00 X0.0000 Y0.0000
M2
(Using default footer. To add your own footer create file "footer" in the output dir.)
(end)
%